{"type":"FeatureCollection","crs":{"type":"name","properties":{"name":"EPSG:4326"}},"features":[{"type":"Feature","id":1,"geometry":{"type":"Polygon","coordinates":[[[-118.394939970349,37.3358583479763],[-118.393530961989,37.3359064816289],[-118.392054643596,37.3360996037646],[-118.390406264469,37.3359612314021],[-118.389422783366,37.3355788864953],[-118.388609479706,37.3353648917677],[-118.387639506768,37.3352861257971],[-118.385823499705,37.3354227596],[-118.385705373298,37.3326813537465],[-118.387300342208,37.3297378227876],[-118.387327550349,37.3291921911345],[-118.387329857369,37.3291335772293],[-118.387168208772,37.3288136908401],[-118.38710148139,37.3286837770121],[-118.387280614647,37.3283589976537],[-118.387617843741,37.3282225499551],[-118.388093723286,37.3284441129321],[-118.388931813542,37.3290273721821],[-118.389734612862,37.3293487489099],[-118.390411037725,37.3293660483711],[-118.390931656668,37.3296258316445],[-118.391533616088,37.3303173019508],[-118.392043316901,37.330718719726],[-118.392609068609,37.3308544814776],[-118.393398010616,37.3309128039105],[-118.393885296648,37.3312000070955],[-118.393997093881,37.3313248792247],[-118.395080300196,37.3322792661162],[-118.395296531921,37.3340821084731],[-118.394939970349,37.3358583479763]]]},"properties":{"OBJECTID":1,"PCL":"BIS097","GB_TYPE":"A","COMM_CODE":14000,"COMM_NAME":"Barren Lands - Abag","COMM_ACRON":"ABAG","reinventor":0,"PCL_merged":"BIS097","typeE_rs":0,"EEset":0,"reinv":0,"EEset2017":0,"acres":125.241262074,"GlobalID":"4af7d2eb-a918-4175-9506-7e9533b0acf9","CreationDate":"Tue, 26 May 2020 23:44:16 GMT","Creator":"znelson24","EditDate":"Tue, 26 May 2020 23:44:16 GMT","Editor":"znelson24"}},{"type":"Feature","id":2,"geometry":{"type":"Polygon","coordinates":[[[-118.335822724821,37.4554822279317],[-118.335854835387,37.451886461378],[-118.337366468968,37.4518892184457],[-118.34960451099,37.4519260484758],[-118.349557361374,37.4554661041125],[-118.345794934211,37.4554837132321],[-118.336181031373,37.4554763803636],[-118.335822724821,37.4554822279317]]]},"properties":{"OBJECTID":2,"PCL":"LAW027","GB_TYPE":"E","COMM_CODE":11000,"COMM_NAME":"Irrigated Agriculture","COMM_ACRON":"IRAG","reinventor":0,"PCL_merged":"LAW027","typeE_rs":0,"EEset":0,"reinv":0,"EEset2017":0,"acres":119.098301483,"GlobalID":"ad25278e-a7cc-4b64-a3ed-b914763ecf19","CreationDate":"Tue, 26 May 2020 23:44:16 GMT","Creator":"znelson24","EditDate":"Tue, 26 May 2020 23:44:16 GMT","Editor":"znelson24"}},{"type":"Feature","id":3,"geometry":{"type":"Polygon","coordinates":[[[-118.336751866916,37.4155183792342],[-118.336525537393,37.4158814689864],[-118.336135356154,37.4164356884533],[-118.335651400439,37.4171820468135],[-118.335389896655,37.4181737616648],[-118.335311500371,37.4192950056301],[-118.334262712279,37.4192275136543],[-118.33404786273,37.419220020646],[-118.332574473319,37.419169917185],[-118.330389815698,37.4191584369428],[-118.330157442318,37.4182245605971],[-118.330256536947,37.4154590510071],[-118.336751866916,37.4155183792342]]]},"properties":{"OBJECTID":3,"PCL":"LAW095","GB_TYPE":"A","COMM_CODE":14000,"COMM_NAME":"Barren Lands - Abag","COMM_ACRON":"ABAG","reinventor":0,"PCL_merged":"LAW095","typeE_rs":0,"EEset":0,"reinv":0,"EEset2017":0,"acres":50.072334466,"GlobalID":"9415117a-4e3e-447c-975a-4d054b1d7e0e","CreationDate":"Tue, 26 May 2020 23:44:16 GMT","Creator":"znelson24","EditDate":"Tue, 26 May 2020 23:44:16 GMT","Editor":"znelson24"}},{"type":"Feature","id":4,"geometry":{"type":"Polygon","coordinates":[[[-118.321647674899,37.3881818319794],[-118.321534131194,37.3912359388819],[-118.321158331765,37.3913861489917],[-118.320744403953,37.3914881125735],[-118.315865091512,37.3919246073654],[-118.315627636608,37.390296721594],[-118.315806370892,37.3885668657651],[-118.315908858888,37.3884846062879],[-118.316035393162,37.3884210068103],[-118.31621976487,37.3883702849673],[-118.316755829801,37.388276895257],[-118.31771503807,37.3882860532786],[-118.31987076079,37.3881160260136],[-118.321647674899,37.3881818319794]]]},"properties":{"OBJECTID":4,"PCL":"LAW129","GB_TYPE":"A","COMM_CODE":14000,"COMM_NAME":"Barren Lands - Abag","COMM_ACRON":"ABAG","reinventor":0,"PCL_merged":"LAW129","typeE_rs":0,"EEset":0,"reinv":0,"EEset2017":0,"acres":48.7992599285,"GlobalID":"541e2f3c-d39a-4462-b1ed-f31a6b2c312c","CreationDate":"Tue, 26 May 2020 23:44:16 GMT","Creator":"znelson24","EditDate":"Tue, 26 May 2020 23:44:16 GMT","Editor":"znelson24"}},{"type":"Feature","id":5,"geometry":{"type":"Polygon","coordinates":[[[-118.326797015554,37.419207774252],[-118.325634735758,37.4192406250895],[-118.325494613304,37.4154601893658],[-118.327144448022,37.4154597307129],[-118.330256536947,37.4154590510071],[-118.330157442318,37.4182245605971],[-118.330389815698,37.4191584369428],[-118.32885275877,37.4191504641147],[-118.326797015554,37.419207774252]]]},"properties":{"OBJECTID":5,"PCL":"LAW094","GB_TYPE":"A","COMM_CODE":14000,"COMM_NAME":"Barren Lands - Abag","COMM_ACRON":"ABAG","reinventor":0,"PCL_merged":"LAW094","typeE_rs":0,"EEset":0,"reinv":0,"EEset2017":0,"acres":42.1070264104,"GlobalID":"620e2ea3-38ed-45e6-9b86-0283b5c424c3","CreationDate":"Tue, 26 May 2020 23:44:16 GMT","Creator":"znelson24","EditDate":"Tue, 26 May 2020 23:44:16 GMT","Editor":"znelson24"}},{"type":"Feature","id":6,"geometry":{"type":"Polygon","coordinates":[[[-118.32719526799,37.4236495961175],[-118.327100578212,37.4226393599137],[-118.327101723999,37.4226402483637],[-118.32690714167,37.421860972259],[-118.326903608933,37.421852900084],[-118.326797015554,37.419207774252],[-118.32885275877,37.4191504641147],[-118.330389815698,37.4191584369428],[-118.332574473319,37.419169917185],[-118.33404786273,37.419220020646],[-118.333914469574,37.4239291941221],[-118.334482824406,37.4239227883915],[-118.334725404056,37.4240273119519],[-118.335285709909,37.4247763112686],[-118.335336598025,37.4252867928963],[-118.334847899386,37.4252607581504],[-118.333122773732,37.4251702368369],[-118.330337655721,37.4252772830208],[-118.329343471989,37.4252983671672],[-118.328932198517,37.4251767982016],[-118.328649420494,37.4250357598304],[-118.328220004441,37.4248467919259],[-118.327914725985,37.4246474164767],[-118.327744847611,37.4240517372296],[-118.327530507803,37.4238179913978],[-118.32719526799,37.4236495961175]]]},"properties":{"OBJECTID":6,"PCL":"LAW090","GB_TYPE":"A","COMM_CODE":14000,"COMM_NAME":"Barren Lands - Abag","COMM_ACRON":"ABAG","reinventor":0,"PCL_merged":"LAW090","typeE_rs":0,"EEset":0,"reinv":0,"EEset2017":0,"acres":103.054282195,"GlobalID":"1c48fdd2-2318-4899-9e05-3a3f338bca70","CreationDate":"Tue, 26 May 2020 23:44:16 GMT","Creator":"znelson24","EditDate":"Tue, 26 May 2020 23:44:16 GMT","Editor":"znelson24"}},{"type":"Feature","id":7,"geometry":{"type":"Polygon","coordinates":[[[-118.225280196177,37.0202495423685],[-118.22527982426,37.0200863950248],[-118.225263481828,37.0198386826043],[-118.22524138351,37.0195126083939],[-118.22504005494,37.0188756002804],[-118.22471878987,37.0185399884522],[-118.224648311751,37.0182811157214],[-118.224605772382,37.0182220616588],[-118.224607832156,37.0182103224208],[-118.224671812866,37.017784209257],[-118.22476665456,37.0175299435039],[-118.224978004096,37.0174610640081],[-118.225326708574,37.0174754994765],[-118.225691055507,37.0174140552586],[-118.226064290211,37.0171361870434],[-118.226496572809,37.0168955663472],[-118.226930122581,37.0166639448168],[-118.227007603318,37.0163792088732],[-118.226559774919,37.0160719493112],[-118.226669122307,37.0158815303068],[-118.22678593356,37.0155260799907],[-118.226949652533,37.0149420963557],[-118.227270283513,37.0143997588339],[-118.227195961381,37.0139020597117],[-118.227063744938,37.0133689011181],[-118.226805554853,37.0129704486184],[-118.226750132117,37.0128790786423],[-118.22739686817,37.0129048552774],[-118.228054362623,37.013180202093],[-118.228666283996,37.013277541362],[-118.229095170626,37.0134560906399],[-118.229917908491,37.0138009282479],[-118.23060687847,37.0140056266175],[-118.231614031569,37.0140754242539],[-118.231581767581,37.014444424781],[-118.232098865287,37.0144462796336],[-118.232145554332,37.0144836538351],[-118.232556802836,37.0148219183572],[-118.233032701201,37.0151261602864],[-118.233456350243,37.0149793488321],[-118.23384435841,37.0147139221398],[-118.234111836936,37.0148499599001],[-118.234197257204,37.0151970079146],[-118.234390768681,37.0152076189415],[-118.234569303236,37.0153346629288],[-118.234540253239,37.0155540011314],[-118.234141736484,37.0157257955844],[-118.233810819648,37.0161159227165],[-118.233641652214,37.0165683701125],[-118.233412088103,37.0173179989774],[-118.233640410694,37.0175346677067],[-118.233754477187,37.0176371434496],[-118.233806551218,37.017868259068],[-118.233810062302,37.0180854556938],[-118.231254811298,37.0181461930631],[-118.231121087678,37.0203090981682],[-118.230929623049,37.0234226588158],[-118.230985676355,37.0266877925105],[-118.230985705444,37.0266895949713],[-118.230965196531,37.026672680602],[-118.230047127317,37.0256537030125],[-118.229212574935,37.0247230913651],[-118.228850789252,37.0245267239624],[-118.228111865458,37.0245767232037],[-118.227507345731,37.0244558703622],[-118.226902578381,37.023969956352],[-118.226864110944,37.0237450067817],[-118.227002350477,37.0236029644162],[-118.227436857174,37.0233587117493],[-118.227678040345,37.023047046986],[-118.227583335103,37.0226108528716],[-118.227424013555,37.0222807879046],[-118.227048540143,37.0219313204898],[-118.226687849161,37.0215222077756],[-118.226352330785,37.0212101839582],[-118.226098366215,37.0207963625257],[-118.225784373151,37.0205643376542],[-118.225362157713,37.0204533125781],[-118.225280196177,37.0202495423685]]]},"properties":{"OBJECTID":7,"PCL":"TIN054","GB_TYPE":"A","COMM_CODE":35100,"COMM_NAME":"Great Basin Mixed Scrub","COMM_ACRON":"GBMS","reinventor":0,"PCL_merged":"TIN054","typeE_rs":0,"EEset":0,"reinv":0,"EEset2017":0,"acres":155.316825166,"GlobalID":"fc43544a-c2fa-4dff-8429-8d80fcae1b4d","CreationDate":"Tue, 26 May 2020 23:44:16 GMT","Creator":"znelson24","EditDate":"Tue, 26 May 2020 23:44:16 GMT","Editor":"znelson24"}},{"type":"Feature","id":8,"geometry":{"type":"Polygon","coordinates":[[[-118.276207582821,37.1653647594585],[-118.276346234911,37.1652379791815],[-118.276493990304,37.1650498084024],[-118.276525937844,37.1649404009363],[-118.27634727561,37.1646971538072],[-118.275992824578,37.1647162899454],[-118.275651067816,37.1648876176961],[-118.274943329623,37.1653305815541],[-118.274508508714,37.1657282457307],[-118.273556560514,37.1660494379799],[-118.272657675147,37.1660428600623],[-118.272275988308,37.1658486560108],[-118.271196258317,37.1658710467015],[-118.270719010997,37.165686874543],[-118.270053825205,37.1656462263856],[-118.269877574157,37.1656805616278],[-118.269769445059,37.1657475186308],[-118.26962071121,37.1659456065602],[-118.269370194316,37.1663881494613],[-118.269276013859,37.1664810959475],[-118.269132869029,37.1665421170676],[-118.269001206678,37.166548933594],[-118.268876221398,37.1664835698755],[-118.268804359131,37.1664293557212],[-118.268751473476,37.1663650242925],[-118.268706803034,37.1663204338373],[-118.268684654228,37.1662756031208],[-118.268658347634,37.1662515472386],[-118.268507233688,37.1661053407049],[-118.268419742557,37.1660594058458],[-118.268266542978,37.1659231362539],[-118.268217964305,37.1657794381048],[-118.268144174456,37.1656098703909],[-118.268022672924,37.1654831761374],[-118.267916020311,37.165368941867],[-118.267764430858,37.1652614978095],[-118.267654988979,37.1651824469912],[-118.267500190426,37.165152552785],[-118.267152851776,37.1651932190038],[-118.2669736423,37.1652528204868],[-118.266857465433,37.1653775469015],[-118.266799049735,37.1655214864439],[-118.2668164394,37.1656186480628],[-118.266785091001,37.1656974004435],[-118.266771146223,37.1658066138162],[-118.266817727995,37.1660332588382],[-118.266849550668,37.1662528498718],[-118.266874857782,37.1664869331763],[-118.2669003433,37.1666642281282],[-118.266792078007,37.1668582753101],[-118.266739426966,37.1670102653842],[-118.266739053045,37.1670553372595],[-118.266717329537,37.1671709432696],[-118.266717406902,37.1672430510451],[-118.266696720279,37.1673532378183],[-118.266669367261,37.1674689030972],[-118.266670224701,37.167520271308],[-118.266638370264,37.1677711892211],[-118.266439816177,37.167819278172],[-118.266314729256,37.1678828078703],[-118.266245796954,37.1679367237549],[-118.266115710667,37.1680381627849],[-118.265767590213,37.1680328641553],[-118.265636110083,37.1683208985532],[-118.265424955239,37.1682888995968],[-118.265249441056,37.1678950753012],[-118.264878664569,37.1678143019441],[-118.263859007395,37.167861224478],[-118.263856334918,37.1678360149689],[-118.263841981531,37.1677180893092],[-118.263837957825,37.167679373846],[-118.263806758924,37.1674291291712],[-118.263723357916,37.1668846954363],[-118.263502272432,37.166458905512],[-118.263290274049,37.1659699231794],[-118.263414358056,37.1657108126586],[-118.263671135451,37.1656422788813],[-118.264096927074,37.1658486602412],[-118.264560543301,37.1664323062186],[-118.264773600952,37.1667139625708],[-118.264972334152,37.1667442926332],[-118.265369334419,37.1666418109824],[-118.265787786676,37.16640749971],[-118.265835004063,37.1661996839009],[-118.265724913952,37.165946675275],[-118.265926521688,37.165609219059],[-118.265945313447,37.1653178796982],[-118.265883465967,37.1651211421875],[-118.265968669173,37.1649624951467],[-118.266450669572,37.1648924528744],[-118.266853606491,37.1648764332125],[-118.267157607023,37.1646685778983],[-118.267149051385,37.1642910004401],[-118.266944256515,37.1637622878288],[-118.266547945651,37.1637025228523],[-118.265663741849,37.1637642388091],[-118.264764072155,37.1638441395224],[-118.264035097598,37.1636238647973],[-118.263610747799,37.1631650873142],[-118.263145261627,37.1629410990761],[-118.262600818491,37.1627774391051],[-118.262583646512,37.1626252924828],[-118.262714223339,37.1625535968863],[-118.2630795991,37.1625145541941],[-118.263728761727,37.1628123007475],[-118.264674678197,37.1628725262899],[-118.265315920686,37.16310004174],[-118.265805838526,37.1631002235544],[-118.266109640735,37.1628806562678],[-118.266032734606,37.1626588407173],[-118.26545578054,37.1623017492126],[-118.264836088648,37.1620154161018],[-118.26423572179,37.1620100973793],[-118.263421539056,37.1614734494984],[-118.262978779011,37.1612609358043],[-118.262916749254,37.1609848788977],[-118.262565338917,37.1606443001606],[-118.262376407464,37.1602542192608],[-118.262388619188,37.1600404670879],[-118.263044682591,37.1601452533788],[-118.263406106613,37.1604785130842],[-118.263796991627,37.1607546727309],[-118.265183090905,37.1608742007053],[-118.266382934417,37.1608325563678],[-118.266752300391,37.1610332211162],[-118.266920463737,37.1614595702782],[-118.26701156961,37.161587492186],[-118.2672467599,37.1616435681152],[-118.267428000937,37.1615713264094],[-118.267494588706,37.1612425206309],[-118.267541878003,37.1607697030009],[-118.267655358428,37.1606188653409],[-118.267863454903,37.1605364207328],[-118.268543642719,37.1603993533975],[-118.26909141737,37.1603583421348],[-118.27005409572,37.1602777344445],[-118.270207687727,37.1603707325137],[-118.270665715449,37.1607543134122],[-118.271024740888,37.1608748547729],[-118.271325680239,37.1608220552631],[-118.272059790666,37.1606771792562],[-118.272812383341,37.1606943455155],[-118.27381435962,37.160807978418],[-118.274635297391,37.1607369675472],[-118.275026875117,37.1605155328941],[-118.275571234103,37.1601374197607],[-118.275977852744,37.1599401567331],[-118.277419622728,37.1598876849569],[-118.278247514797,37.1598291931797],[-118.279033858465,37.1595106509023],[-118.280072159011,37.1590406615094],[-118.280483459293,37.1590551515384],[-118.280398315373,37.1638215472875],[-118.280394952466,37.1638224849838],[-118.279356383088,37.164013059661],[-118.278920157137,37.1641250249387],[-118.278811564129,37.1642974529846],[-118.278704257747,37.164613183674],[-118.278596646831,37.1649108895075],[-118.278387449639,37.1651285683046],[-118.277631406008,37.1653773762093],[-118.276662192558,37.165407640309],[-118.276207582821,37.1653647594585]]]},"properties":{"OBJECTID":8,"PCL":"BGP160","GB_TYPE":"A","COMM_CODE":14000,"COMM_NAME":"Barren Lands - Abag","COMM_ACRON":"ABAG","reinventor":0,"PCL_merged":"BGP160","typeE_rs":0,"EEset":0,"reinv":0,"EEset2017":0,"acres":204.461882798,"GlobalID":"a134cc3e-a381-47f3-87e7-f33a6267f775","CreationDate":"Tue, 26 May 2020 23:44:16 GMT","Creator":"znelson24","EditDate":"Tue, 26 May 2020 23:44:16 GMT","Editor":"znelson24"}},{"type":"Feature","id":9,"geometry":{"type":"Polygon","coordinates":[[[-118.235935332272,36.9747969819444],[-118.236046099669,36.9748381975169],[-118.236165195465,36.9749081724885],[-118.236314955635,36.9750679695208],[-118.236429369187,36.9753345010309],[-118.236514883845,36.9755508538934],[-118.236534137515,36.9758382051828],[-118.236300530687,36.9763292005988],[-118.236163847466,36.9767002012446],[-118.236083309842,36.9774167627118],[-118.235789952793,36.9779651666558],[-118.235254217602,36.9783240858437],[-118.234704648734,36.9785921027361],[-118.234262901749,36.978927506048],[-118.233870813007,36.9792074060079],[-118.233117134866,36.9794297580467],[-118.232566992139,36.9795237977862],[-118.232015778456,36.9796908612341],[-118.231922110115,36.9800136360915],[-118.231850162457,36.9803596233503],[-118.231579013942,36.9806851373634],[-118.231227421452,36.9807599889278],[-118.230915752764,36.9807325659218],[-118.23030507292,36.9807659249917],[-118.228909272955,36.9815835131141],[-118.228881697284,36.9809167506756],[-118.228917043383,36.980389958731],[-118.228927437208,36.9803375688065],[-118.229039207542,36.9794629429407],[-118.229059443026,36.9790444766058],[-118.228843158536,36.9786600030076],[-118.228242820102,36.9780775778749],[-118.227649534794,36.9775140067008],[-118.22715834701,36.9767312364228],[-118.226933241283,36.9760061152985],[-118.226830162505,36.9751138742765],[-118.226878377428,36.9741281286953],[-118.227121892306,36.9734811039372],[-118.227151172583,36.9731355601083],[-118.227385391075,36.9728194507018],[-118.227572636615,36.9727264751779],[-118.227964992928,36.9728134693663],[-118.228621024998,36.9731591500554],[-118.229469373705,36.9736569829026],[-118.23041433583,36.9741538091259],[-118.230907141802,36.9744083201435],[-118.231702889615,36.9746380574273],[-118.232171614267,36.9747224441939],[-118.232633638294,36.9746698830884],[-118.233155052625,36.9745382815503],[-118.233960254616,36.9745876231962],[-118.234813069524,36.9747329162906],[-118.235717897416,36.9747595781284],[-118.235935332272,36.9747969819444]]]},"properties":{"OBJECTID":9,"PCL":"BLK011","GB_TYPE":"C","COMM_CODE":45310,"COMM_NAME":"Alkali Meadow","COMM_ACRON":"AM","reinventor":1,"PCL_merged":"BLK011","typeE_rs":0,"EEset":1,"reinv":1,"EEset2017":1,"acres":116.948096949,"GlobalID":"5337cf47-baed-435f-b5c4-d42821828b73","CreationDate":"Tue, 26 May 2020 23:44:16 GMT","Creator":"znelson24","EditDate":"Tue, 26 May 2020 23:44:16 GMT","Editor":"znelson24"}},{"type":"Feature","id":10,"geometry":{"type":"Polygon","coordinates":[[[-118.223390471653,36.9638374051997],[-118.223241126968,36.9639813656283],[-118.22311501094,36.9642431715063],[-118.223055180821,36.964927062128],[-118.223152464073,36.9656715345504],[-118.2232748012,36.9662967623545],[-118.223319941938,36.9668010922722],[-118.223590998591,36.967242704368],[-118.223815169363,36.9675622045956],[-118.223863260905,36.9678997420032],[-118.223775627217,36.9680394613161],[-118.223546911252,36.9684889174277],[-118.223628554634,36.9688170951806],[-118.223754293985,36.9692331581748],[-118.224044943103,36.9695645937941],[-118.22432365427,36.96985198276],[-118.224712733509,36.9701562630123],[-118.22522354593,36.9705557397897],[-118.225659964137,36.9710794755119],[-118.226095404068,36.971541922433],[-118.226491465134,36.9720002675787],[-118.226712282233,36.9723892053302],[-118.227151172583,36.9731355601083],[-118.227121892306,36.9734811039372],[-118.226878377428,36.9741281286953],[-118.226830162505,36.9751138742765],[-118.226933241283,36.9760061152985],[-118.22715834701,36.9767312364228],[-118.227649534794,36.9775140067008],[-118.228242820102,36.9780775778749],[-118.228843158536,36.9786600030076],[-118.229059443026,36.9790444766058],[-118.229039207542,36.9794629429407],[-118.228927437208,36.9803375688065],[-118.228428205378,36.9801047516832],[-118.228135343019,36.9798490691586],[-118.227700275487,36.9794136686207],[-118.227342576383,36.979108173254],[-118.22714294135,36.9789903443889],[-118.226867624934,36.9790571842791],[-118.226537942451,36.9791669514538],[-118.226150324148,36.9788870004555],[-118.225723051824,36.9787264445384],[-118.225359770312,36.9788428641949],[-118.225193500894,36.9791240154383],[-118.22495719176,36.9791012090108],[-118.224905142676,36.9787979681655],[-118.224894183857,36.9785348666905],[-118.224976900212,36.9783681548844],[-118.224894423384,36.9781292274996],[-118.224721227749,36.9781183905606],[-118.22453799553,36.978182473988],[-118.224181123627,36.9782780919744],[-118.224049625104,36.9784155586317],[-118.223976851675,36.9787822819376],[-118.224153904064,36.9790337582196],[-118.224206542425,36.979373952072],[-118.224036779239,36.9795776165061],[-118.224001824296,36.9799205136865],[-118.223905753979,36.9800954758879],[-118.223562712251,36.9802134841839],[-118.223297837802,36.9805821824462],[-118.22313668541,36.9809029409905],[-118.222770279616,36.9811059201017],[-118.222273027981,36.9813472014981],[-118.221971070135,36.9815756575081],[-118.221847355397,36.981849155796],[-118.221765448477,36.9819266168987],[-118.221477211221,36.9818890126667],[-118.221381880717,36.9817592868271],[-118.221204859044,36.9816502292115],[-118.221011577998,36.9816486074453],[-118.221035514974,36.9818809276322],[-118.221008092428,36.9821336057637],[-118.220757055724,36.9821740406492],[-118.220531511577,36.9820519602082],[-118.220326508863,36.9818088775487],[-118.220130985897,36.9813854147917],[-118.220110825688,36.9811079852129],[-118.220081478027,36.9807477195584],[-118.219880355019,36.980465836432],[-118.219810159068,36.9804323022987],[-118.219738205666,36.9804294343116],[-118.219635315128,36.9804593341563],[-118.219549490653,36.9805025812188],[-118.219223847759,36.979669404771],[-118.219151474662,36.9792176353563],[-118.218960372236,36.9787887157514],[-118.218927736109,36.9783626801629],[-118.219095908104,36.9777768392939],[-118.219149792049,36.9774923409954],[-118.219139373864,36.9771913748595],[-118.218864010692,36.9768327281518],[-118.218783588808,36.9765099432477],[-118.218674279286,36.9761369752001],[-118.218609991956,36.9756986438866],[-118.218465649675,36.9752422023318],[-118.218302597833,36.9748806012226],[-118.218353969586,36.9744383802588],[-118.21840286688,36.9739114521672],[-118.218384029349,36.9735754161552],[-118.218251332883,36.9733559283657],[-118.218129287307,36.9729587509273],[-118.217936800805,36.9724415052126],[-118.217904250758,36.9718793543899],[-118.218256003682,36.9714638052519],[-118.218290476173,36.9711596738678],[-118.218253532937,36.9709563324045],[-118.218297652928,36.9706935677646],[-118.218529384374,36.9702900634076],[-118.218513641776,36.9700071802061],[-118.21850301741,36.9695520725122],[-118.218447588763,36.9692461586275],[-118.218403599013,36.9691645799325],[-118.218312823297,36.96910781891],[-118.218348233806,36.969074103151],[-118.218510734633,36.9688380710443],[-118.218607958353,36.968594593558],[-118.218686833534,36.9683981775713],[-118.218806472061,36.968292388038],[-118.219020897725,36.9680017368815],[-118.219169752002,36.9678965492829],[-118.219429397599,36.9678352958072],[-118.219842901984,36.9679824949593],[-118.220083332841,36.968195468412],[-118.22015630742,36.9684038492018],[-118.22025743703,36.9685461372195],[-118.220357385983,36.9686145214391],[-118.220449445908,36.968610872712],[-118.220595822088,36.9685615959422],[-118.22072131874,36.9684710679123],[-118.220896394718,36.9683196367127],[-118.22119699535,36.9680794783195],[-118.2215134184,36.967915778191],[-118.221768655542,36.9676490415763],[-118.221793938771,36.9671223538439],[-118.221854962535,36.9666529899546],[-118.221907893653,36.9662395964352],[-118.222044902365,36.9658154239612],[-118.222072128941,36.9653400971229],[-118.222256233143,36.9647000016954],[-118.222409048621,36.9642810752502],[-118.222687869388,36.9639446857762],[-118.222878079498,36.9638273486604],[-118.223012680402,36.9637448378681],[-118.223075631715,36.9636774855226],[-118.223122989202,36.9636184063165],[-118.223390471653,36.9638374051997]]]},"properties":{"OBJECTID":10,"PCL":"BLK016","GB_TYPE":"C","COMM_CODE":45310,"COMM_NAME":"Alkali Meadow","COMM_ACRON":"AM","reinventor":1,"PCL_merged":"BLK016","typeE_rs":0,"EEset":1,"reinv":1,"EEset2017":1,"acres":249.133068346,"GlobalID":"b53f0653-8f7c-4ae7-a0c0-375fda0969b2","CreationDate":"Tue, 26 May 2020 23:44:16 GMT","Creator":"znelson24","EditDate":"Tue, 26 May 2020 23:44:16 GMT","Editor":"znelson24"}},{"type":"Feature","id":11,"geometry":{"type":"Polygon","coordinates":[[[-118.169349018373,36.796108445309],[-118.169622894058,36.7962076189204],[-118.169881846293,36.7962835008642],[-118.17020990847,36.7962604455988],[-118.170810115411,36.7963699316814],[-118.17105687322,36.7966018813256],[-118.171070233245,36.7969641306393],[-118.170866669128,36.7973609651687],[-118.170553563749,36.7975569522532],[-118.170062453784,36.7977673089736],[-118.169544474672,36.7980536481259],[-118.16919043002,36.798285189643],[-118.169040604552,36.7986048711024],[-118.168795518,36.7989994051029],[-118.168293828215,36.799178307048],[-118.167542335109,36.7994416879831],[-118.166955052135,36.7992987062367],[-118.16668165925,36.7989362989947],[-118.166421814132,36.798432232488],[-118.166434197032,36.7979922061105],[-118.166555344923,36.7976286377267],[-118.166650988634,36.7974311862057],[-118.166936770634,36.7973544676552],[-118.167155773035,36.7973090512286],[-118.167400853353,36.7972092931812],[-118.167549917035,36.7969130590001],[-118.167671728505,36.7965936543684],[-118.16806767673,36.7965383896224],[-118.168436112688,36.7965167455302],[-118.168708998173,36.7963292720217],[-118.168803571215,36.7962093523763],[-118.16898528292,36.7960705495489],[-118.169349018373,36.796108445309]]]},"properties":{"OBJECTID":11,"PCL":"IND105","GB_TYPE":"A","COMM_CODE":36150,"COMM_NAME":"Nevada Saltbush Scrub","COMM_ACRON":"ATTO","reinventor":0,"PCL_merged":"IND105","typeE_rs":0,"EEset":0,"reinv":0,"EEset2017":0,"acres":22.2892192049,"GlobalID":"46bd0360-5c52-4205-8db7-a769dd18f5ae","CreationDate":"Tue, 26 May 2020 23:44:16 GMT","Creator":"znelson24","EditDate":"Tue, 26 May 2020 23:44:16 GMT","Editor":"znelson24"}},{"type":"Feature","id":12,"geometry":{"type":"Polygon","coordinates":[[[-118.160062525003,36.7853170024591],[-118.160029858681,36.7850829447771],[-118.160153218678,36.7845679178287],[-118.160342273451,36.7842478649712],[-118.160657042896,36.7839410096928],[-118.160941889629,36.7837309006311],[-118.161023312044,36.7836309475245],[-118.161062730244,36.7833466072461],[-118.16091179722,36.7830731365099],[-118.160624096706,36.7827964921805],[-118.160174163013,36.7826115720025],[-118.159816859532,36.7826240663508],[-118.159656722918,36.7826319359045],[-118.159303059367,36.7825885040682],[-118.159042461546,36.7823251130183],[-118.158837415521,36.7820296303332],[-118.158685508273,36.7817651812603],[-118.158657059536,36.7815130525629],[-118.158919010029,36.7813455391391],[-118.15924520823,36.7812026397585],[-118.159666508737,36.7810497989797],[-118.159966769437,36.7811938113256],[-118.160620621538,36.7813767455059],[-118.161224052561,36.7814114280499],[-118.161891835894,36.7815518513885],[-118.162056541525,36.7818468205478],[-118.162137749627,36.7824752394775],[-118.16220672576,36.782738690621],[-118.162316494606,36.7829575724524],[-118.162604341837,36.7831693078332],[-118.162672602403,36.7833110699424],[-118.162728625459,36.7836070994735],[-118.162810904669,36.783786585111],[-118.162590681759,36.7840456479262],[-118.162564846629,36.7841901317203],[-118.162470328403,36.7843875702313],[-118.162390099954,36.7846407581313],[-118.162444561331,36.7847592181947],[-118.162595171722,36.7848623156815],[-118.162828768994,36.7849691105873],[-118.162885138165,36.7852137536698],[-118.162739406041,36.7853594078584],[-118.162498707811,36.7853761807169],[-118.162281499655,36.7853900201781],[-118.162091344078,36.7854883304719],[-118.16209211006,36.7856875428211],[-118.162071935019,36.7857616584052],[-118.162051842727,36.7858411817131],[-118.16178022013,36.786036741465],[-118.161434674267,36.7859382482411],[-118.16124422007,36.7857940710724],[-118.160840269983,36.785538391904],[-118.160426504223,36.7855234942277],[-118.160155719907,36.7854774544729],[-118.160062525003,36.7853170024591]]]},"properties":{"OBJECTID":12,"PCL":"IND131","GB_TYPE":"A","COMM_CODE":36150,"COMM_NAME":"Nevada Saltbush Scrub","COMM_ACRON":"ATTO","reinventor":0,"PCL_merged":"IND131","typeE_rs":0,"EEset":0,"reinv":0,"EEset2017":0,"acres":25.7645968021,"GlobalID":"9096c2ea-9bcf-4deb-affa-fb3d411b9169","CreationDate":"Tue, 26 May 2020 23:44:16 GMT","Creator":"znelson24","EditDate":"Tue, 26 May 2020 23:44:16 GMT","Editor":"znelson24"}},{"type":"Feature","id":13,"geometry":{"type":"Polygon","coordinates":[[[-118.159836154717,36.7703659757015],[-118.160151032589,36.7705161556095],[-118.160411646279,36.7707831505589],[-118.160655913986,36.7711548714999],[-118.1610966056,36.7712515385733],[-118.161276765712,36.7715328372783],[-118.161279661482,36.7717248179093],[-118.161132220249,36.7719786615385],[-118.160917558026,36.7722331601277],[-118.160927113667,36.7724953886902],[-118.160879592217,36.7726878604373],[-118.160658549839,36.7728910378042],[-118.160101128399,36.7730794627723],[-118.159851151959,36.7730728834517],[-118.159602975308,36.7729626186034],[-118.15941679217,36.7729509093491],[-118.159116611759,36.7728844196249],[-118.158857911674,36.7728193278932],[-118.158638184575,36.7725888916296],[-118.157984850839,36.7725096081087],[-118.157619214752,36.7721138202502],[-118.15755910543,36.7718421666882],[-118.157656934172,36.7714923550241],[-118.158170043923,36.77118898691],[-118.158607622428,36.7710044407776],[-118.158766558299,36.77076941905],[-118.159002605775,36.7705210267833],[-118.159437604766,36.7703887872181],[-118.159836154717,36.7703659757015]]]},"properties":{"OBJECTID":13,"PCL":"IND123","GB_TYPE":"A","COMM_CODE":36150,"COMM_NAME":"Nevada Saltbush Scrub","COMM_ACRON":"ATTO","reinventor":0,"PCL_merged":"IND123","typeE_rs":0,"EEset":0,"reinv":0,"EEset2017":0,"acres":16.4158517848,"GlobalID":"23737b3f-1adf-4983-951a-1f53efd6df8a","CreationDate":"Tue, 26 May 2020 23:44:16 GMT","Creator":"znelson24","EditDate":"Tue, 26 May 2020 23:44:16 GMT","Editor":"znelson24"}},{"type":"Feature","id":14,"geometry":{"type":"Polygon","coordinates":[[[-118.336342658332,37.3943053418],[-118.334634658323,37.3956897417259],[-118.333833431275,37.3951407508693],[-118.332805245333,37.3942401753405],[-118.330736853346,37.3928411280229],[-118.32838772369,37.3917886052212],[-118.325564501019,37.3912659228243],[-118.323874653519,37.3912091169496],[-118.323271733004,37.3912915692318],[-118.320957349133,37.3917590693168],[-118.318033793807,37.3922125765983],[-118.316542257849,37.3925148952655],[-118.316117049957,37.3927476615546],[-118.315617873153,37.392562125647],[-118.31499659807,37.392048052529],[-118.314894659588,37.3915155910772],[-118.315018091898,37.3907570946559],[-118.315141846031,37.389693940862],[-118.315318462365,37.3888762656103],[-118.315805574256,37.3885671014607],[-118.315626839972,37.3902969572843],[-118.315864294876,37.3919248430505],[-118.320743607316,37.39148834826],[-118.321157535129,37.3913863846784],[-118.321533334558,37.3912361745692],[-118.321646878262,37.3881820676763],[-118.321835646179,37.3881889742613],[-118.322238513279,37.3882944388075],[-118.322289657318,37.3904976447991],[-118.322616653034,37.3909131154224],[-118.322830801966,37.3904357168826],[-118.323090443704,37.3904256046731],[-118.323004602077,37.3888843717138],[-118.323342469883,37.3886336289083],[-118.323766173956,37.3885748120391],[-118.324996787666,37.3886647009762],[-118.325629711075,37.3887477501093],[-118.326008714009,37.3887164659786],[-118.32620499215,37.3887007483476],[-118.326825635267,37.3888560361834],[-118.328068568847,37.389387411281],[-118.329660791387,37.389739090939],[-118.331017638004,37.3906414082026],[-118.331977214466,37.3913715182642],[-118.332757266674,37.3917232759389],[-118.333287993147,37.3921571536343],[-118.333446867092,37.3926438900571],[-118.333097555151,37.3930128659276],[-118.333029260534,37.3932389700859],[-118.333255510828,37.3933202469247],[-118.33396706047,37.3931202471167],[-118.334554499879,37.3931839312858],[-118.334960177954,37.3934452528489],[-118.335965996214,37.3940396070405],[-118.336342658332,37.3943053418]]]},"properties":{"OBJECTID":14,"PCL":"LAW118","GB_TYPE":"A","COMM_CODE":14000,"COMM_NAME":"Barren Lands - Abag","COMM_ACRON":"ABAG","reinventor":0,"PCL_merged":"LAW118","typeE_rs":0,"EEset":0,"reinv":0,"EEset2017":0,"acres":93.5422011171,"GlobalID":"2438a080-98e2-4e8b-b282-dea94ecb0b9d","CreationDate":"Tue, 26 May 2020 23:44:16 GMT","Creator":"znelson24","EditDate":"Tue, 06 Oct 2020 18:25:47 GMT","Editor":"icwater4"}}]}