{
"type": "FeatureCollection",
"name": "reference_parcels",
"crs": { "type": "name", "properties": { "name": "urn:ogc:def:crs:OGC:1.3:CRS84" } },
"features": [
{ "type": "Feature", "properties": { "parcel": "LAW012", "reference_group": "LAW90/94/95", "years_sampled": "2024,2025", "n_years": 2, "GB_TYPE": "A", "COMM_NAME": "Shadscale Scrub", "COMM_CODE": 36140.0, "COMM_ACRON": "ATCO", "Acreage": 1068.60627746, "nrcs_esd_plan_note": "Plan goals derived from NRCS ESDs + 1984–87 inventory (species Table 1); specific ESD name not in Green Book layer" }, "geometry": { "type": "MultiPolygon", "coordinates": [ [ [ [ -118.345624985269581, 37.492278542262028 ], [ -118.344946433451213, 37.492286270429226 ], [ -118.344936737040712, 37.491745599083586 ], [ -118.344258189851715, 37.491753323204826 ], [ -118.344224271563576, 37.489860972562624 ], [ -118.342188679769237, 37.489884119977688 ], [ -118.342203193793921, 37.490695128147621 ], [ -118.341863924602549, 37.490698982753713 ], [ -118.341524655346532, 37.490702836385864 ], [ -118.341529491039935, 37.490973172491479 ], [ -118.341190220497282, 37.490977025187107 ], [ -118.341195055033253, 37.491247361317185 ], [ -118.340855783203949, 37.491251213076247 ], [ -118.340860616582418, 37.491521549230789 ], [ -118.340521343466463, 37.491525400053284 ], [ -118.340487519727404, 37.489633046438122 ], [ -118.340826784289135, 37.489629195877342 ], [ -118.340797787698577, 37.488007178212818 ], [ -118.341137044864197, 37.488003326902508 ], [ -118.349618452975903, 37.487906727645488 ], [ -118.349501727531859, 37.481418675736876 ], [ -118.349840953693544, 37.481414800009958 ], [ -118.349578392294802, 37.466816657997981 ], [ -118.349917552456546, 37.466812783329786 ], [ -118.349844634033389, 37.462757737750998 ], [ -118.349166350258713, 37.462765484985681 ], [ -118.349161491990628, 37.462495148435025 ], [ -118.340682953455428, 37.462591659557596 ], [ -118.34062019844832, 37.459077271037685 ], [ -118.337228930365796, 37.459115700367079 ], [ -118.337224115710185, 37.45884536232488 ], [ -118.336206737690986, 37.458856872041501 ], [ -118.336149010760664, 37.455612813185631 ], [ -118.336488122191028, 37.455608978033268 ], [ -118.345644106463695, 37.455505061232508 ], [ -118.345658639803915, 37.456316072981352 ], [ -118.345319526454759, 37.456319934509509 ], [ -118.345329213231835, 37.456860609019074 ], [ -118.34499009737803, 37.456864469649481 ], [ -118.345033680097018, 37.459297504639878 ], [ -118.345372806931366, 37.459293643671991 ], [ -118.345377650999268, 37.459563980790989 ], [ -118.345716778989058, 37.45956011881276 ], [ -118.345726469759313, 37.460100792936927 ], [ -118.346065600124689, 37.460096929910826 ], [ -118.346070446827113, 37.460367266915988 ], [ -118.346748709804046, 37.460359537870119 ], [ -118.346753559011603, 37.460629874787287 ], [ -118.347092691623118, 37.460626008767498 ], [ -118.347097542115662, 37.46089634563419 ], [ -118.347775809584718, 37.46088861060084 ], [ -118.347780662582537, 37.461158947379467 ], [ -118.348458932232774, 37.461151208379384 ], [ -118.348463787735881, 37.461421545069918 ], [ -118.3491420595672, 37.461413802103039 ], [ -118.349146917575695, 37.461684138705458 ], [ -118.349486054614289, 37.461680265725036 ], [ -118.349388882370206, 37.456273531971362 ], [ -118.349727994941759, 37.456269658770431 ], [ -118.349713417684313, 37.455458648373941 ], [ -118.350052526531201, 37.455454774313168 ], [ -118.352087178248667, 37.455431509521915 ], [ -118.35209204580886, 37.455701846070099 ], [ -118.355483139000356, 37.45566299322514 ], [ -118.355419707215773, 37.45214862199493 ], [ -118.351689678777731, 37.452191349379319 ], [ -118.351694544338059, 37.452461686120436 ], [ -118.351355449233736, 37.452465564630302 ], [ -118.351016354064427, 37.452469442167569 ], [ -118.35102121725032, 37.452739778971086 ], [ -118.350343024277379, 37.452747531203144 ], [ -118.350328442232794, 37.451936520527916 ], [ -118.34965025631837, 37.451944268643793 ], [ -118.349616250894698, 37.450051909422072 ], [ -118.349955335346991, 37.450048036113763 ], [ -118.349960194289565, 37.450318373146629 ], [ -118.350638365438556, 37.450310623537234 ], [ -118.350643226885211, 37.450580960481894 ], [ -118.351999573282214, 37.450565449442252 ], [ -118.351984974502187, 37.449754439021433 ], [ -118.352324057280256, 37.449750558943272 ], [ -118.352319189930697, 37.449480222148146 ], [ -118.352658271424232, 37.449476341135181 ], [ -118.352653402920168, 37.449206004364825 ], [ -118.353331563273088, 37.449198239496859 ], [ -118.353336434216175, 37.449468576191812 ], [ -118.353675515514553, 37.449464692261387 ], [ -118.353670643351933, 37.449194355604163 ], [ -118.354009723365735, 37.449190470738991 ], [ -118.354687883197997, 37.449182698091242 ], [ -118.354683007441977, 37.448912361534298 ], [ -118.355022086040947, 37.44890847378948 ], [ -118.355017209130565, 37.448638137257369 ], [ -118.355356286444902, 37.448634248577854 ], [ -118.355351408380201, 37.448363912070569 ], [ -118.357046787876897, 37.44834445427518 ], [ -118.357051672038892, 37.448614790593467 ], [ -118.357390748962032, 37.448610896079238 ], [ -118.357395634408746, 37.448881232346757 ], [ -118.357734712486121, 37.448877336822235 ], [ -118.357739599217581, 37.449147673038972 ], [ -118.358078678449161, 37.449143776504158 ], [ -118.35808356646541, 37.449414112670112 ], [ -118.358761727171668, 37.449406316607345 ], [ -118.35876661769224, 37.449676652684623 ], [ -118.358427536152234, 37.449680551240121 ], [ -118.3584324255186, 37.449950887342318 ], [ -118.358093342693763, 37.449954784963175 ], [ -118.358103119183298, 37.450495457204468 ], [ -118.358442204447272, 37.45049155950791 ], [ -118.358447094009577, 37.450761895571283 ], [ -118.358786180427799, 37.45075799686434 ], [ -118.358795962187543, 37.451298668876539 ], [ -118.358456873330084, 37.451302567659226 ], [ -118.358481322774409, 37.452654247652561 ], [ -118.358820417730186, 37.452650348680535 ], [ -118.358825309034728, 37.452920684602496 ], [ -118.359164405144895, 37.452916784620008 ], [ -118.359179083109723, 37.453727792194634 ], [ -118.359518182813801, 37.453723891125868 ], [ -118.359523076819244, 37.453994226920308 ], [ -118.35986217767767, 37.453990324841023 ], [ -118.359867072968285, 37.454260660584602 ], [ -118.360206174981158, 37.454256757494775 ], [ -118.360225761676787, 37.455338100188051 ], [ -118.360564868503559, 37.455334195973904 ], [ -118.360574664683583, 37.455874867167047 ], [ -118.360913773884718, 37.455870961904374 ], [ -118.360923572766268, 37.456411632969868 ], [ -118.361262684341781, 37.456407726658611 ], [ -118.36129208987704, 37.458029739316778 ], [ -118.360952970981685, 37.458033645855672 ], [ -118.360962770910433, 37.458574316714042 ], [ -118.360623649509535, 37.458578222356032 ], [ -118.360638346233273, 37.459389228660285 ], [ -118.360977471294433, 37.45938532290451 ], [ -118.360987271877676, 37.459925993633441 ], [ -118.360648144376299, 37.459929899465088 ], [ -118.360657942781074, 37.460470570218092 ], [ -118.360997072722782, 37.460466664310573 ], [ -118.361001973243532, 37.460736999629731 ], [ -118.362358497236343, 37.460721366119273 ], [ -118.362363402703338, 37.460991701273642 ], [ -118.362702534757943, 37.460987790425875 ], [ -118.362712348328927, 37.461528460619824 ], [ -118.363051482758422, 37.461524548723204 ], [ -118.363061299032097, 37.462065218789363 ], [ -118.362722162162072, 37.462069130761968 ], [ -118.36272706917697, 37.462339465813635 ], [ -118.362387931021146, 37.462343376851315 ], [ -118.362048792799783, 37.462347286916064 ], [ -118.362073316654232, 37.463698962359921 ], [ -118.361734172265741, 37.463702871641573 ], [ -118.36173907601281, 37.46397320672947 ], [ -118.361399930338422, 37.463977115076105 ], [ -118.361404832930603, 37.464247450189013 ], [ -118.36106568597036, 37.464251357600617 ], [ -118.361095095576047, 37.465873368233858 ], [ -118.361434249859016, 37.465869460594575 ], [ -118.361448959207365, 37.466680465622581 ], [ -118.361788117086377, 37.466676556896381 ], [ -118.361807735350126, 37.46775789660061 ], [ -118.36214689804595, 37.467753986749457 ], [ -118.362156710012187, 37.468294656447959 ], [ -118.362495875083724, 37.468290745547733 ], [ -118.362500782385794, 37.468561080339576 ], [ -118.362839948612432, 37.468557168428227 ], [ -118.362844857200727, 37.468827503169145 ], [ -118.363184024582438, 37.468823590246672 ], [ -118.363198754402802, 37.469634594277721 ], [ -118.363877096293692, 37.46962676528522 ], [ -118.363872183846553, 37.469356430697196 ], [ -118.364550523033529, 37.469348597888057 ], [ -118.364560352876296, 37.46988926689906 ], [ -118.364221180874168, 37.469893183866276 ], [ -118.364231008538042, 37.470433852901564 ], [ -118.363891834028792, 37.470437768971657 ], [ -118.363896746738419, 37.470708103507903 ], [ -118.36355757094276, 37.470712018642807 ], [ -118.36356248249723, 37.470982353204121 ], [ -118.363223305415161, 37.470986267403831 ], [ -118.363233126279241, 37.471526936563627 ], [ -118.362893946689965, 37.471530849866106 ], [ -118.362898855999575, 37.471801184464589 ], [ -118.362559675123862, 37.471805096831822 ], [ -118.362574399783469, 37.472616100663558 ], [ -118.362913584321817, 37.472612188182346 ], [ -118.362957772830143, 37.475045198636344 ], [ -118.362618577303024, 37.475049111459498 ], [ -118.362648031933517, 37.476671118074094 ], [ -118.362308829014225, 37.47667503015181 ], [ -118.362313737127664, 37.476945364580246 ], [ -118.361974532921664, 37.476949275722518 ], [ -118.361984346902901, 37.47748994461648 ], [ -118.361645140188983, 37.477493854861251 ], [ -118.361650046056724, 37.477764189326784 ], [ -118.360971629989905, 37.477772006971868 ], [ -118.360966726564584, 37.477501672430421 ], [ -118.360627519654145, 37.477505579754826 ], [ -118.360632421858242, 37.477775914334217 ], [ -118.360293213661095, 37.4777798207231 ], [ -118.360288312678179, 37.477509486105781 ], [ -118.359270691357608, 37.477521199317884 ], [ -118.359202135756519, 37.473736511723722 ], [ -118.358862945614092, 37.473740413650354 ], [ -118.358858050496991, 37.473470078687214 ], [ -118.358518861510106, 37.473473979602645 ], [ -118.358513967679343, 37.473203644588686 ], [ -118.358174779848085, 37.473207544492922 ], [ -118.358164994824534, 37.472666874350423 ], [ -118.357825809369757, 37.472670773205628 ], [ -118.357816027049424, 37.472130102935623 ], [ -118.357476843971114, 37.472134000741832 ], [ -118.357471954129835, 37.471863665549563 ], [ -118.357811135987276, 37.47185976778119 ], [ -118.357806244990456, 37.471589432613818 ], [ -118.35746706435387, 37.471593330344334 ], [ -118.357462174643217, 37.471322995126179 ], [ -118.357122995162158, 37.471326891845607 ], [ -118.357108330084557, 37.470515885999937 ], [ -118.356769154200634, 37.470519781632632 ], [ -118.356739833132863, 37.468897769364823 ], [ -118.357079001692355, 37.468893873959104 ], [ -118.357054563161043, 37.467542196902471 ], [ -118.357393725552015, 37.467538300712789 ], [ -118.357379059554958, 37.466727294436993 ], [ -118.35703990082574, 37.466731190513173 ], [ -118.357030126261947, 37.466190519522257 ], [ -118.357369282550067, 37.466186623521743 ], [ -118.357708438772903, 37.466182726548176 ], [ -118.357698659588209, 37.465642055656843 ], [ -118.358037813304719, 37.465638157785918 ], [ -118.358032922589857, 37.465367822358679 ], [ -118.357693770093846, 37.465371720191754 ], [ -118.357688880664782, 37.465101384713726 ], [ -118.3573497293239, 37.465105281535926 ], [ -118.357325289260359, 37.463753603762427 ], [ -118.356646998586953, 37.463761394109447 ], [ -118.356651884028309, 37.464031729765694 ], [ -118.356312737373329, 37.464035623517532 ], [ -118.356317621659542, 37.464305959198647 ], [ -118.355978473718906, 37.464309852015319 ], [ -118.355983356849919, 37.464580187721303 ], [ -118.355644207623655, 37.464584079602766 ], [ -118.355649089599467, 37.464854415333612 ], [ -118.355309939087533, 37.464858306279851 ], [ -118.3549707885104, 37.464862196253065 ], [ -118.354975668110512, 37.465132532046511 ], [ -118.352262451384632, 37.465163617105382 ], [ -118.351923299000987, 37.465167498359079 ], [ -118.351933036427994, 37.465708170586325 ], [ -118.351593881538349, 37.465712050942365 ], [ -118.351598749128897, 37.465982387074241 ], [ -118.351259592953696, 37.465986266494916 ], [ -118.351274192453801, 37.466797274925973 ], [ -118.351613352290656, 37.466793395392294 ], [ -118.351618220141276, 37.467063731472429 ], [ -118.351957381133673, 37.467059850927967 ], [ -118.35196711947124, 37.46760052297406 ], [ -118.352306282839805, 37.4675966413811 ], [ -118.352311153326781, 37.467866977347029 ], [ -118.352650317850902, 37.467863094743258 ], [ -118.352655189623576, 37.468133430658547 ], [ -118.352994355303295, 37.468129547043937 ], [ -118.35299922836171, 37.468399882908571 ], [ -118.353338395196985, 37.468395998283093 ], [ -118.353348143950456, 37.468936669898113 ], [ -118.353687313161956, 37.468932784224002 ], [ -118.353692188857067, 37.46920311997436 ], [ -118.354031359224194, 37.469199233289366 ], [ -118.35404111325127, 37.469739904675777 ], [ -118.354380285994665, 37.469736016942086 ], [ -118.3543851643267, 37.470006352578118 ], [ -118.355063512059488, 37.46999857411565 ], [ -118.355068392898232, 37.470268909663204 ], [ -118.35540756788761, 37.470265018934384 ], [ -118.355417332202236, 37.470805689915117 ], [ -118.355756509567968, 37.470801798137501 ], [ -118.355863961109478, 37.476749174677039 ], [ -118.356203165271666, 37.476745281094495 ], [ -118.356217823864952, 37.477556286387454 ], [ -118.358253069448224, 37.477532903768882 ], [ -118.358262856824851, 37.478073573445357 ], [ -118.358602066635811, 37.478069672859412 ], [ -118.35865591531612, 37.481043354737729 ], [ -118.360012807644324, 37.481027740991507 ], [ -118.360007907097142, 37.480757406491641 ], [ -118.36034712879416, 37.480753500659056 ], [ -118.360342227091039, 37.480483166184172 ], [ -118.360681447501179, 37.480479259415958 ], [ -118.360676544642175, 37.480208924966043 ], [ -118.361015763765465, 37.480205017262215 ], [ -118.361010859750607, 37.479934682837303 ], [ -118.361350077587019, 37.479930774197875 ], [ -118.361345172416307, 37.479660439797975 ], [ -118.36168438896587, 37.479656530222968 ], [ -118.361679482639389, 37.479386195848072 ], [ -118.362018697902073, 37.479382285337508 ], [ -118.362028513063265, 37.479922953998411 ], [ -118.36168929535792, 37.479926864584911 ], [ -118.361699108338613, 37.480467533269952 ], [ -118.36135988812498, 37.480471442958851 ], [ -118.361364793492285, 37.480741777319913 ], [ -118.361025571991746, 37.480745686073206 ], [ -118.361030476203155, 37.481016020459265 ], [ -118.360691253415681, 37.481019928276929 ], [ -118.360696156471178, 37.481290262687985 ], [ -118.360356932396812, 37.481294169570006 ], [ -118.360361834296356, 37.481564504006052 ], [ -118.360022608935083, 37.481568409952423 ], [ -118.360027509678673, 37.481838744413452 ], [ -118.359688283030437, 37.481842649424124 ], [ -118.359693182618031, 37.48211298391012 ], [ -118.359353954682874, 37.4821168879851 ], [ -118.359014726682304, 37.482120791086452 ], [ -118.359024521167825, 37.482661460171215 ], [ -118.35868529065884, 37.482665362374739 ], [ -118.358695082962953, 37.483206031483491 ], [ -118.358355849945511, 37.483209932789137 ], [ -118.358365640068115, 37.483750601921862 ], [ -118.358026404542159, 37.483754502329589 ], [ -118.358031298479958, 37.484024836914408 ], [ -118.357692061667009, 37.484028736386314 ], [ -118.357701847295502, 37.48456940559285 ], [ -118.357362607973968, 37.484573304166766 ], [ -118.357367499664619, 37.484843638788469 ], [ -118.357028259056079, 37.484847536426528 ], [ -118.357038040190105, 37.485388205706776 ], [ -118.356698797072895, 37.485392102446802 ], [ -118.356359553890357, 37.485395998213079 ], [ -118.356364442111996, 37.485666332909446 ], [ -118.356025197642495, 37.48567022773981 ], [ -118.356030084707683, 37.485940562461039 ], [ -118.35569083895119, 37.485944456355462 ], [ -118.355695724859956, 37.48621479110156 ], [ -118.355356477816429, 37.486218684060034 ], [ -118.355361362568729, 37.48648901883098 ], [ -118.355022114238224, 37.486492910853471 ], [ -118.355026997833988, 37.486763245649264 ], [ -118.354687748216477, 37.486767136735757 ], [ -118.35469263065572, 37.487037471556391 ], [ -118.354353379751203, 37.487041361706858 ], [ -118.354363142381743, 37.487582031384846 ], [ -118.354023888968413, 37.487585920637038 ], [ -118.353684635489898, 37.487589808915416 ], [ -118.353689514459319, 37.487860143810508 ], [ -118.353350259693798, 37.48786403115281 ], [ -118.353355137506526, 37.488134366072707 ], [ -118.353015881453999, 37.488138252478926 ], [ -118.353011004863106, 37.487867917521299 ], [ -118.352671749967257, 37.487871802915954 ], [ -118.352332495006294, 37.487875687336775 ], [ -118.352342243365811, 37.488416357389958 ], [ -118.352002985895993, 37.488420240912362 ], [ -118.352007858951524, 37.488690575957243 ], [ -118.351668600194756, 37.488694458543499 ], [ -118.351673472093495, 37.488964793613142 ], [ -118.351334212049721, 37.488968675263237 ], [ -118.351339082791611, 37.489239010357608 ], [ -118.35099982146086, 37.489242891071491 ], [ -118.351004691045873, 37.489513226190624 ], [ -118.350665428428144, 37.489517105968304 ], [ -118.350670296856251, 37.489787441112149 ], [ -118.350331032951516, 37.489791319953611 ], [ -118.350335900222717, 37.490061655122183 ], [ -118.349996635030976, 37.490065533027391 ], [ -118.350001501145215, 37.490335868220662 ], [ -118.349662234666496, 37.490339745189608 ], [ -118.349671964645907, 37.490880415612622 ], [ -118.349332695658163, 37.49088429168291 ], [ -118.34899342660546, 37.490888166779264 ], [ -118.34899828924857, 37.491158502046616 ], [ -118.347301936900735, 37.491177863107254 ], [ -118.34696266623645, 37.491181732397528 ], [ -118.346967521612171, 37.491452067877489 ], [ -118.346628249660967, 37.491455936231375 ], [ -118.346288977644917, 37.491459803611292 ], [ -118.346293830641358, 37.491730139153425 ], [ -118.345954557338416, 37.491734005596925 ], [ -118.345959409177567, 37.49200434116365 ], [ -118.345620134587691, 37.492008206670711 ], [ -118.345624985269581, 37.492278542262028 ] ] ] ] } },
{ "type": "Feature", "properties": { "parcel": "LAW024", "reference_group": "LAW90/94/95", "years_sampled": "2024,2025", "n_years": 2, "GB_TYPE": "A", "COMM_NAME": "Great Basin Mixed Scrub", "COMM_CODE": 35100.0, "COMM_ACRON": "GBMS", "Acreage": 86.956306865100004, "nrcs_esd_plan_note": "Plan goals derived from NRCS ESDs + 1984–87 inventory (species Table 1); specific ESD name not in Green Book layer" }, "geometry": { "type": "MultiPolygon", "coordinates": [ [ [ [ -118.363046574719945, 37.461254213670692 ], [ -118.362707441510665, 37.461258125529326 ], [ -118.362702534757943, 37.460987790425875 ], [ -118.362363402703338, 37.460991701273642 ], [ -118.362358497236343, 37.460721366119273 ], [ -118.361001973243532, 37.460736999629731 ], [ -118.360997072722782, 37.460466664310573 ], [ -118.360657942781074, 37.460470570218092 ], [ -118.360648144376299, 37.459929899465088 ], [ -118.360987271877676, 37.459925993633441 ], [ -118.360977471294433, 37.45938532290451 ], [ -118.360638346233273, 37.459389228660285 ], [ -118.360623649509535, 37.458578222356032 ], [ -118.360962770910433, 37.458574316714042 ], [ -118.360952970981685, 37.458033645855672 ], [ -118.36129208987704, 37.458029739316778 ], [ -118.361262684341781, 37.456407726658611 ], [ -118.360923572766268, 37.456411632969868 ], [ -118.360913773884718, 37.455870961904374 ], [ -118.360574664683583, 37.455874867167047 ], [ -118.360564868503559, 37.455334195973904 ], [ -118.360225761676787, 37.455338100188051 ], [ -118.360206174981158, 37.454256757494775 ], [ -118.359867072968285, 37.454260660584602 ], [ -118.35986217767767, 37.453990324841023 ], [ -118.359523076819244, 37.453994226920308 ], [ -118.359518182813801, 37.453723891125868 ], [ -118.359179083109723, 37.453727792194634 ], [ -118.359164405144895, 37.452916784620008 ], [ -118.358825309034728, 37.452920684602496 ], [ -118.358820417730186, 37.452650348680535 ], [ -118.358481322774409, 37.452654247652561 ], [ -118.358456873330084, 37.451302567659226 ], [ -118.358795962187543, 37.451298668876539 ], [ -118.358791071275007, 37.451028332876909 ], [ -118.35913015884752, 37.451024433159546 ], [ -118.359469246354706, 37.45102053246967 ], [ -118.35946435306829, 37.450750196532866 ], [ -118.359803439290502, 37.450746294908349 ], [ -118.360142525447316, 37.450742392311312 ], [ -118.360137629787133, 37.450472056437356 ], [ -118.360476714658972, 37.450468152905721 ], [ -118.360471817844598, 37.450197817056733 ], [ -118.360810901431492, 37.4501939125905 ], [ -118.360806003462955, 37.449923576766508 ], [ -118.361145085764889, 37.449919671365699 ], [ -118.361140186642274, 37.449649335566697 ], [ -118.361479267659206, 37.449645429231346 ], [ -118.361469467171275, 37.449104757670369 ], [ -118.361808545683758, 37.449100850438434 ], [ -118.361823250172378, 37.449911857646633 ], [ -118.362162332277933, 37.449907949328363 ], [ -118.362206460255862, 37.45234096991225 ], [ -118.362545553272369, 37.452337060279753 ], [ -118.362560267436365, 37.453148066794128 ], [ -118.362899364046498, 37.453144156075105 ], [ -118.362909176256238, 37.453684826943984 ], [ -118.363248275240295, 37.453680915176378 ], [ -118.363253182663229, 37.453951250553402 ], [ -118.363592282801534, 37.453947337775169 ], [ -118.363621736034659, 37.455569349537434 ], [ -118.363960843426312, 37.455565435558505 ], [ -118.363965753747891, 37.455835770768886 ], [ -118.364304862293835, 37.455831855779252 ], [ -118.364314685573547, 37.456372526085111 ], [ -118.364653796493712, 37.456368610046717 ], [ -118.364683275227279, 37.457990620425377 ], [ -118.364344156987343, 37.457994536691977 ], [ -118.36435889357999, 37.458805541820624 ], [ -118.364019771614295, 37.458809457228533 ], [ -118.364034505137241, 37.459620462354728 ], [ -118.363695379445645, 37.459624376903903 ], [ -118.363700289531053, 37.459894711958071 ], [ -118.363361162553772, 37.459898625572421 ], [ -118.363375889542979, 37.460709630771319 ], [ -118.363036758839669, 37.460713543526836 ], [ -118.363046574719945, 37.461254213670692 ] ] ] ] } },
{ "type": "Feature", "properties": { "parcel": "LAW028", "reference_group": "LAW90/94/95", "years_sampled": "2022,2024,2025", "n_years": 3, "GB_TYPE": "A", "COMM_NAME": "Shadscale Scrub", "COMM_CODE": 36140.0, "COMM_ACRON": "ATCO", "Acreage": 289.33543537499997, "nrcs_esd_plan_note": "Plan goals derived from NRCS ESDs + 1984–87 inventory (species Table 1); specific ESD name not in Green Book layer" }, "geometry": { "type": "MultiPolygon", "coordinates": [ [ [ [ -118.335805090326119, 37.455346309006046 ], [ -118.326988200685079, 37.455445655284898 ], [ -118.326921326281962, 37.451660903390497 ], [ -118.327260421143961, 37.451657095056682 ], [ -118.331668648536706, 37.451607498211182 ], [ -118.331476964856918, 37.440793928164872 ], [ -118.331816010049124, 37.440790107699449 ], [ -118.336223591717513, 37.44074035317805 ], [ -118.336098608580372, 37.433711535092193 ], [ -118.333725518546856, 37.433738339633827 ], [ -118.333720720900118, 37.433468000041835 ], [ -118.334059732735824, 37.433464173774652 ], [ -118.334398744507425, 37.433460346535512 ], [ -118.334393944487559, 37.433190007004939 ], [ -118.33744503657762, 37.433155518450071 ], [ -118.337449847564727, 37.433425857645609 ], [ -118.337788858694466, 37.433422020686997 ], [ -118.337798483298727, 37.433962698964727 ], [ -118.338137496801394, 37.433958860959613 ], [ -118.338147124100047, 37.434499539111073 ], [ -118.338486139975686, 37.434495700059408 ], [ -118.338495769968873, 37.43503637808459 ], [ -118.339512824521876, 37.435024854873824 ], [ -118.339522462084503, 37.435565532623414 ], [ -118.339861482577547, 37.435561689534502 ], [ -118.339871122835106, 37.436102367157744 ], [ -118.340210145701221, 37.43609852302211 ], [ -118.340219788653812, 37.436639200518968 ], [ -118.340558813893068, 37.436635355336612 ], [ -118.340587751609519, 37.438257387292808 ], [ -118.340248719057314, 37.43826123269929 ], [ -118.340258363040391, 37.438801909989323 ], [ -118.339919327985996, 37.438805754498382 ], [ -118.339943432976099, 37.44015744768398 ], [ -118.339604391762563, 37.440161291407598 ], [ -118.339618851872316, 37.440972307275842 ], [ -118.33927980693737, 37.440976150139271 ], [ -118.339289444894334, 37.4415168273948 ], [ -118.338950397456884, 37.441520669360656 ], [ -118.338960033233136, 37.442061346639122 ], [ -118.338620983293168, 37.442065187707371 ], [ -118.338625800058708, 37.442335526364538 ], [ -118.338286748835245, 37.442339366497848 ], [ -118.338291564446024, 37.442609705179372 ], [ -118.337952511939122, 37.442613544377707 ], [ -118.337957326395042, 37.44288388308361 ], [ -118.337618272604672, 37.44288772134697 ], [ -118.337623085905747, 37.443158060077245 ], [ -118.33728403083191, 37.443161897405609 ], [ -118.337308092205561, 37.444513591049379 ], [ -118.336969030971375, 37.444517427591805 ], [ -118.336993087855532, 37.445869121098788 ], [ -118.336654020460557, 37.445872956855148 ], [ -118.336658830810833, 37.446143295555025 ], [ -118.336319762132291, 37.446147130376247 ], [ -118.336329380586861, 37.446687807811742 ], [ -118.335990309405318, 37.44669164173505 ], [ -118.336004733910741, 37.44750265790308 ], [ -118.335665659006708, 37.447506490965679 ], [ -118.335699309897478, 37.44939886183267 ], [ -118.336038393338001, 37.44939502850945 ], [ -118.336052819770259, 37.450206044289743 ], [ -118.336391906805289, 37.450202209882292 ], [ -118.336401527187235, 37.450742886930037 ], [ -118.33674061659724, 37.450739051475551 ], [ -118.336745428104237, 37.451009389942776 ], [ -118.337084518669627, 37.451005553478481 ], [ -118.33709414431577, 37.451546230299641 ], [ -118.337433237256192, 37.451542392788227 ], [ -118.337438051395381, 37.451812731142148 ], [ -118.336081674369211, 37.451828075501354 ], [ -118.33574257995204, 37.451831909159687 ], [ -118.335805090326119, 37.455346309006046 ] ] ] ] } },
{ "type": "Feature", "properties": { "parcel": "LAW029", "reference_group": "LAW118/129", "years_sampled": "2022,2023,2025", "n_years": 3, "GB_TYPE": "A", "COMM_NAME": "Nevada Saltbush Scrub", "COMM_CODE": 36150.0, "COMM_ACRON": "ATTO", "Acreage": 165.23922250800001, "nrcs_esd_plan_note": "Plan planting table cites NRCS ecological site “gravely loam” (≤3% per species / ≤15% aggregate) for LAW118/129 goals" }, "geometry": { "type": "MultiPolygon", "coordinates": [ [ [ [ -118.34965025631837, 37.451944268643793 ], [ -118.341512005136309, 37.452036942589281 ], [ -118.341507176296417, 37.45176660469631 ], [ -118.337438051395381, 37.451812731142148 ], [ -118.337433237256192, 37.451542392788227 ], [ -118.33709414431577, 37.451546230299641 ], [ -118.337084518669627, 37.451005553478481 ], [ -118.336745428104237, 37.451009389942776 ], [ -118.33674061659724, 37.450739051475551 ], [ -118.336401527187235, 37.450742886930037 ], [ -118.336391906805289, 37.450202209882292 ], [ -118.336052819770259, 37.450206044289743 ], [ -118.336038393338001, 37.44939502850945 ], [ -118.335699309897478, 37.44939886183267 ], [ -118.335665659006708, 37.447506490965679 ], [ -118.336004733910741, 37.44750265790308 ], [ -118.335990309405318, 37.44669164173505 ], [ -118.336329380586861, 37.446687807811742 ], [ -118.336319762132291, 37.446147130376247 ], [ -118.336658830810833, 37.446143295555025 ], [ -118.336654020460557, 37.445872956855148 ], [ -118.336993087855532, 37.445869121098788 ], [ -118.336969030971375, 37.444517427591805 ], [ -118.337308092205561, 37.444513591049379 ], [ -118.33728403083191, 37.443161897405609 ], [ -118.337623085905747, 37.443158060077245 ], [ -118.337618272604672, 37.44288772134697 ], [ -118.337957326395042, 37.44288388308361 ], [ -118.337952511939122, 37.442613544377707 ], [ -118.338291564446024, 37.442609705179372 ], [ -118.338286748835245, 37.442339366497848 ], [ -118.338625800058708, 37.442335526364538 ], [ -118.338620983293168, 37.442065187707371 ], [ -118.338960033233136, 37.442061346639122 ], [ -118.338950397456884, 37.441520669360656 ], [ -118.339289444894334, 37.4415168273948 ], [ -118.33927980693737, 37.440976150139271 ], [ -118.339618851872316, 37.440972307275842 ], [ -118.339604391762563, 37.440161291407598 ], [ -118.339943432976099, 37.44015744768398 ], [ -118.339919327985996, 37.438805754498382 ], [ -118.340258363040391, 37.438801909989323 ], [ -118.340248719057314, 37.43826123269929 ], [ -118.340926784097306, 37.438253540914218 ], [ -118.340955731446513, 37.439875572180881 ], [ -118.340616691645209, 37.439879418783661 ], [ -118.340635986290877, 37.440960772852343 ], [ -118.340296941549113, 37.440964618632385 ], [ -118.34031623234938, 37.442045972643676 ], [ -118.341333381010244, 37.442034431938552 ], [ -118.341338207528693, 37.442304770296957 ], [ -118.341677258172496, 37.442300921413377 ], [ -118.341754510744082, 37.446626332791396 ], [ -118.3414154405923, 37.446630182273196 ], [ -118.341420268206875, 37.446900520411823 ], [ -118.341081196771214, 37.446904368958606 ], [ -118.341090849754949, 37.447445045271827 ], [ -118.340751775816017, 37.447448892920946 ], [ -118.340756601185149, 37.447719231095554 ], [ -118.341095676343528, 37.447715383409061 ], [ -118.341110156496043, 37.448526397743159 ], [ -118.341449235248348, 37.448522548972086 ], [ -118.341458891444759, 37.449063225055411 ], [ -118.341797972571584, 37.449059375237091 ], [ -118.341802801986049, 37.449329713221964 ], [ -118.342141884267903, 37.449325862393749 ], [ -118.342146714966432, 37.449596200328287 ], [ -118.34316396508342, 37.449584641896415 ], [ -118.343168799505136, 37.449854979705762 ], [ -118.344186052699627, 37.449843412409024 ], [ -118.344190890844686, 37.450113750093095 ], [ -118.347581742818946, 37.450075128849122 ], [ -118.347576892478202, 37.449804791540181 ], [ -118.349272309938968, 37.449785444636824 ], [ -118.349277166377519, 37.450055781757854 ], [ -118.349616250894698, 37.450051909422072 ], [ -118.34965025631837, 37.451944268643793 ] ] ] ] } },
{ "type": "Feature", "properties": { "parcel": "LAW039", "reference_group": "LAW118/129", "years_sampled": "2023,2025", "n_years": 2, "GB_TYPE": "A", "COMM_NAME": "Shadscale Scrub", "COMM_CODE": 36140.0, "COMM_ACRON": "ATCO", "Acreage": 30.6904612465, "nrcs_esd_plan_note": "Plan planting table cites NRCS ecological site “gravely loam” (≤3% per species / ≤15% aggregate) for LAW118/129 goals" }, "geometry": { "type": "MultiPolygon", "coordinates": [ [ [ [ -118.363592282801534, 37.453947337775169 ], [ -118.363253182663229, 37.453951250553402 ], [ -118.363248275240295, 37.453680915176378 ], [ -118.362909176256238, 37.453684826943984 ], [ -118.362899364046498, 37.453144156075105 ], [ -118.362560267436365, 37.453148066794128 ], [ -118.362545553272369, 37.452337060279753 ], [ -118.362206460255862, 37.45234096991225 ], [ -118.362162332277933, 37.449907949328363 ], [ -118.361823250172378, 37.449911857646633 ], [ -118.361788940615497, 37.448019507312949 ], [ -118.362128014184719, 37.448015599260415 ], [ -118.362113307412727, 37.447204591894263 ], [ -118.362452377258251, 37.447200682983187 ], [ -118.362418055213467, 37.445308332274863 ], [ -118.362757116458326, 37.445304422657237 ], [ -118.36271298185757, 37.442871399727693 ], [ -118.36305203206426, 37.442867489479603 ], [ -118.363042222657512, 37.44232681765105 ], [ -118.363381270360534, 37.442322906506689 ], [ -118.363592282801534, 37.453947337775169 ] ] ] ] } },
{ "type": "Feature", "properties": { "parcel": "LAW048", "reference_group": "LAW90/94/95", "years_sampled": "2022,2025", "n_years": 2, "GB_TYPE": "A", "COMM_NAME": "Desert Greasewood Scrub", "COMM_CODE": 36130.0, "COMM_ACRON": "SAVES", "Acreage": 42.477377522300003, "nrcs_esd_plan_note": "Plan goals derived from NRCS ESDs + 1984–87 inventory (species Table 1); specific ESD name not in Green Book layer" }, "geometry": { "type": "MultiPolygon", "coordinates": [ [ [ [ -118.339173806401888, 37.435028696916085 ], [ -118.338495769968873, 37.43503637808459 ], [ -118.338486139975686, 37.434495700059408 ], [ -118.338147124100047, 37.434499539111073 ], [ -118.338137496801394, 37.433958860959613 ], [ -118.337798483298727, 37.433962698964727 ], [ -118.337788858694466, 37.433422020686997 ], [ -118.337449847564727, 37.433425857645609 ], [ -118.337435414796118, 37.43261484002025 ], [ -118.337096407257818, 37.432618675895114 ], [ -118.337086788170396, 37.432077997339078 ], [ -118.336747783004938, 37.432081832167526 ], [ -118.336738166611468, 37.43154115348527 ], [ -118.336399163818768, 37.431544987267344 ], [ -118.336394356936836, 37.431274647869586 ], [ -118.336055355298413, 37.431278480642526 ], [ -118.336036133286427, 37.430197122773372 ], [ -118.335697136457526, 37.430200954425551 ], [ -118.335682724277632, 37.429389935776335 ], [ -118.335343731039686, 37.429393766345029 ], [ -118.335334125677235, 37.428853087106511 ], [ -118.334995134811834, 37.428856916629009 ], [ -118.334990333445162, 37.428586576953151 ], [ -118.335329323092239, 37.428582747467871 ], [ -118.335305311129446, 37.427231049080859 ], [ -118.334966327573653, 37.427234878380126 ], [ -118.334947124030705, 37.426153519289137 ], [ -118.335286102713724, 37.426149690138679 ], [ -118.335281300770149, 37.425879350370813 ], [ -118.334942323305285, 37.425883179484089 ], [ -118.334932722046773, 37.425342499835217 ], [ -118.335271697075399, 37.42533867079635 ], [ -118.335266895324239, 37.425068330989752 ], [ -118.335605869070633, 37.425064501016429 ], [ -118.335610672039891, 37.425334840785823 ], [ -118.33594964694025, 37.425331009803628 ], [ -118.33595925550749, 37.42587168922924 ], [ -118.336298232779896, 37.425867857200927 ], [ -118.336307844040121, 37.426408536500389 ], [ -118.336646823684674, 37.426404703425916 ], [ -118.336656437638013, 37.426945382599214 ], [ -118.336995419654713, 37.426941548478538 ], [ -118.337009844720967, 37.427752567029813 ], [ -118.337348830328139, 37.427748731825645 ], [ -118.337363259627224, 37.42855975014885 ], [ -118.337702248824982, 37.428555913861139 ], [ -118.337711871115559, 37.429096592604118 ], [ -118.338050862685648, 37.429092755270062 ], [ -118.338065300258535, 37.429903773175766 ], [ -118.338404295419423, 37.429899934758048 ], [ -118.33842836541865, 37.431251630822651 ], [ -118.3387673666073, 37.431247791246605 ], [ -118.3388010758365, 37.433140164933128 ], [ -118.339140085490442, 37.433136324124057 ], [ -118.339173806401888, 37.435028696916085 ] ] ] ] } },
{ "type": "Feature", "properties": { "parcel": "LAW049", "reference_group": "LAW90/94/95", "years_sampled": "2022,2025", "n_years": 2, "GB_TYPE": "A", "COMM_NAME": "Shadscale Scrub", "COMM_CODE": 36140.0, "COMM_ACRON": "ATCO", "Acreage": 97.408855260600006, "nrcs_esd_plan_note": "Plan goals derived from NRCS ESDs + 1984–87 inventory (species Table 1); specific ESD name not in Green Book layer" }, "geometry": { "type": "MultiPolygon", "coordinates": [ [ [ [ -118.333725518546856, 37.433738339633827 ], [ -118.331691438875893, 37.433761277048795 ], [ -118.331562122284268, 37.426462097514161 ], [ -118.33122314167862, 37.426465916013051 ], [ -118.331218354288964, 37.426195575812336 ], [ -118.327150596656409, 37.426241321561179 ], [ -118.327107644581517, 37.423808255173697 ], [ -118.327446613772295, 37.42380444870517 ], [ -118.32778558289931, 37.423800641265032 ], [ -118.327799906992226, 37.424611663288495 ], [ -118.328138879709655, 37.424607854765739 ], [ -118.328143655752925, 37.424878195377396 ], [ -118.328482629624631, 37.424874385845968 ], [ -118.328487406949804, 37.425144726407716 ], [ -118.329165356937949, 37.425137104355848 ], [ -118.329170136763182, 37.425407444830611 ], [ -118.330865016706625, 37.425388372511506 ], [ -118.330860230790833, 37.425118032222038 ], [ -118.33391099969748, 37.425083641166466 ], [ -118.333915796576264, 37.425353981121816 ], [ -118.334932722046773, 37.425342499835217 ], [ -118.334942323305285, 37.425883179484089 ], [ -118.335281300770149, 37.425879350370813 ], [ -118.335286102713724, 37.426149690138679 ], [ -118.334947124030705, 37.426153519289137 ], [ -118.334966327573653, 37.427234878380126 ], [ -118.335305311129446, 37.427231049080859 ], [ -118.335329323092239, 37.428582747467871 ], [ -118.334990333445162, 37.428586576953151 ], [ -118.334995134811834, 37.428856916629009 ], [ -118.335334125677235, 37.428853087106511 ], [ -118.335343731039686, 37.429393766345029 ], [ -118.335682724277632, 37.429389935776335 ], [ -118.335697136457526, 37.430200954425551 ], [ -118.336036133286427, 37.430197122773372 ], [ -118.336055355298413, 37.431278480642526 ], [ -118.336394356936836, 37.431274647869586 ], [ -118.336399163818768, 37.431544987267344 ], [ -118.336738166611468, 37.43154115348527 ], [ -118.336747783004938, 37.432081832167526 ], [ -118.337086788170396, 37.432077997339078 ], [ -118.337096407257818, 37.432618675895114 ], [ -118.337435414796118, 37.43261484002025 ], [ -118.33744503657762, 37.433155518450071 ], [ -118.334732954976459, 37.433186178831043 ], [ -118.334393944487559, 37.433190007004939 ], [ -118.334398744507425, 37.433460346535512 ], [ -118.334059732735824, 37.433464173774652 ], [ -118.333720720900118, 37.433468000041835 ], [ -118.333725518546856, 37.433738339633827 ] ] ] ] } },
{ "type": "Feature", "properties": { "parcel": "LAW069", "reference_group": "LAW118/129", "years_sampled": "2023,2025", "n_years": 2, "GB_TYPE": "B", "COMM_NAME": "Rabbitbrush Scrub", "COMM_CODE": 35400.0, "COMM_ACRON": "CHNAS", "Acreage": 33.581591653799997, "nrcs_esd_plan_note": "Plan planting table cites NRCS ecological site “gravely loam” (≤3% per species / ≤15% aggregate) for LAW118/129 goals" }, "geometry": { "type": "MultiPolygon", "coordinates": [ [ [ [ -118.368201170184534, 37.427665996611836 ], [ -118.367862189271719, 37.427669920280685 ], [ -118.367852350654218, 37.427129248143714 ], [ -118.367513372112057, 37.427133170764648 ], [ -118.367508454119985, 37.426862834638634 ], [ -118.367169476730254, 37.426866756249787 ], [ -118.367164560022047, 37.426596420072727 ], [ -118.366486607481832, 37.426604260303833 ], [ -118.366491521753815, 37.426874596557056 ], [ -118.366152544167122, 37.426878515253172 ], [ -118.365813566514831, 37.426882432977621 ], [ -118.365818478416131, 37.42715276929404 ], [ -118.365479499480088, 37.427156686084849 ], [ -118.365484410228831, 37.427427022426372 ], [ -118.365145430009008, 37.427430938283536 ], [ -118.365150339605194, 37.427701274650161 ], [ -118.364133394897792, 37.42771301650555 ], [ -118.364128488956197, 37.427442680024846 ], [ -118.36378950847417, 37.427446591995214 ], [ -118.363779699223826, 37.42690591891899 ], [ -118.36344072111261, 37.426909829841669 ], [ -118.363435817803847, 37.426639493246157 ], [ -118.362757863821244, 37.426647312100485 ], [ -118.362762764693755, 37.426917648771962 ], [ -118.361745829574559, 37.42692936987978 ], [ -118.361740932356483, 37.426659033094438 ], [ -118.361401955070733, 37.426662938149072 ], [ -118.361397059136195, 37.426392601312834 ], [ -118.361736035203847, 37.426388696296144 ], [ -118.362752963014231, 37.426376975416062 ], [ -118.362743161596526, 37.425836302008399 ], [ -118.363082134966248, 37.425832393180983 ], [ -118.363067429676434, 37.425021383086332 ], [ -118.363406399326507, 37.425017473401219 ], [ -118.363401496476143, 37.424747136715112 ], [ -118.364418401379282, 37.424735401944098 ], [ -118.364423307883726, 37.425005738516212 ], [ -118.36577918504247, 37.424990078400263 ], [ -118.365774273665963, 37.424719741980283 ], [ -118.366113241573672, 37.42471582456033 ], [ -118.367130144903086, 37.424704066470817 ], [ -118.36712522872017, 37.424433730190181 ], [ -118.368481094034692, 37.424418039287524 ], [ -118.368505699966434, 37.425769719798993 ], [ -118.368844672220916, 37.425765794453675 ], [ -118.368849594822521, 37.426036130478998 ], [ -118.368510621349984, 37.426040055862451 ], [ -118.36851554279923, 37.426310391912949 ], [ -118.368176568042841, 37.426314316362877 ], [ -118.368201170184534, 37.427665996611836 ] ] ] ] } },
{ "type": "Feature", "properties": { "parcel": "LAW091", "reference_group": "LAW90/94/95", "years_sampled": "2022,2025", "n_years": 2, "GB_TYPE": "A", "COMM_NAME": "Shadscale Scrub", "COMM_CODE": 36140.0, "COMM_ACRON": "ATCO", "Acreage": 34.915959534099997, "nrcs_esd_plan_note": "Plan goals derived from NRCS ESDs + 1984–87 inventory (species Table 1); specific ESD name not in Green Book layer" }, "geometry": { "type": "MultiPolygon", "coordinates": [ [ [ [ -118.327088556427739, 37.422726891999034 ], [ -118.324715804412676, 37.422753509038806 ], [ -118.324711041059302, 37.422483167954255 ], [ -118.322677258444131, 37.422505944446563 ], [ -118.322567886927047, 37.416288090849136 ], [ -118.322906822846321, 37.416284298043685 ], [ -118.322925846436775, 37.417365664229891 ], [ -118.323264787163012, 37.417361870305633 ], [ -118.323269544437096, 37.417632211783058 ], [ -118.323608486317426, 37.417628416850519 ], [ -118.323613244872746, 37.417898758278163 ], [ -118.323952187907196, 37.417894962337336 ], [ -118.323956947743739, 37.418165303715178 ], [ -118.324295891932323, 37.418161506766047 ], [ -118.324300653050159, 37.418431848094087 ], [ -118.324639598392849, 37.418428050136626 ], [ -118.324644360791979, 37.41869839141485 ], [ -118.324983307288804, 37.418694592449043 ], [ -118.324988070969297, 37.418964933677451 ], [ -118.3253270186202, 37.41896113370327 ], [ -118.325331783582087, 37.419231474881848 ], [ -118.324653885781089, 37.419239073932566 ], [ -118.324314936785186, 37.419242872000737 ], [ -118.324319698157367, 37.419513213277114 ], [ -118.32465864837107, 37.419509415172044 ], [ -118.324668173741856, 37.420050097612297 ], [ -118.325007126327506, 37.420046298461941 ], [ -118.325011890326124, 37.420316639625774 ], [ -118.32535084406598, 37.420312839466995 ], [ -118.325355609346076, 37.420583180581019 ], [ -118.325694564240109, 37.420579379413809 ], [ -118.325699330801697, 37.42084972047796 ], [ -118.326038286849922, 37.420845918302291 ], [ -118.326043054693045, 37.421116259316612 ], [ -118.326382011895433, 37.421112456132484 ], [ -118.326391550208498, 37.421653138048462 ], [ -118.326730509782976, 37.421649333818884 ], [ -118.326735280252962, 37.421919674720549 ], [ -118.327074240981645, 37.421915869482454 ], [ -118.327088556427739, 37.422726891999034 ] ] ] ] } },
{ "type": "Feature", "properties": { "parcel": "LAW093", "reference_group": "LAW90/94/95", "years_sampled": "2022,2025", "n_years": 2, "GB_TYPE": "A", "COMM_NAME": "Great Basin Mixed Scrub", "COMM_CODE": 35100.0, "COMM_ACRON": "GBMS", "Acreage": 19.3483342641, "nrcs_esd_plan_note": "Plan goals derived from NRCS ESDs + 1984–87 inventory (species Table 1); specific ESD name not in Green Book layer" }, "geometry": { "type": "MultiPolygon", "coordinates": [ [ [ [ -118.32567073238711, 37.419227673899286 ], [ -118.325331783582087, 37.419231474881848 ], [ -118.3253270186202, 37.41896113370327 ], [ -118.324988070969297, 37.418964933677451 ], [ -118.324983307288804, 37.418694592449043 ], [ -118.324644360791979, 37.41869839141485 ], [ -118.324639598392849, 37.418428050136626 ], [ -118.324300653050159, 37.418431848094087 ], [ -118.324295891932323, 37.418161506766047 ], [ -118.323956947743739, 37.418165303715178 ], [ -118.323952187907196, 37.417894962337336 ], [ -118.323613244872746, 37.417898758278163 ], [ -118.323608486317426, 37.417628416850519 ], [ -118.323269544437096, 37.417632211783058 ], [ -118.323264787163012, 37.417361870305633 ], [ -118.322925846436775, 37.417365664229891 ], [ -118.322906822846321, 37.416284298043685 ], [ -118.322567886927047, 37.416288090849136 ], [ -118.322553623553858, 37.415477065963373 ], [ -118.325604011665064, 37.415442896741297 ], [ -118.32567073238711, 37.419227673899286 ] ] ] ] } },
{ "type": "Feature", "properties": { "parcel": "LAW104", "reference_group": "LAW118/129", "years_sampled": "2023,2025", "n_years": 2, "GB_TYPE": "A", "COMM_NAME": "Desert Greasewood Scrub", "COMM_CODE": 36130.0, "COMM_ACRON": "SAVES", "Acreage": 27.1321468991, "nrcs_esd_plan_note": "Plan planting table cites NRCS ecological site “gravely loam” (≤3% per species / ≤15% aggregate) for LAW118/129 goals" }, "geometry": { "type": "MultiPolygon", "coordinates": [ [ [ [ -118.350331294732825, 37.414351823382063 ], [ -118.349992371316105, 37.414355694640498 ], [ -118.34985166777777, 37.406515867736523 ], [ -118.350190555896205, 37.406511997568771 ], [ -118.350185703805053, 37.406241658553668 ], [ -118.350863477413668, 37.406233915380447 ], [ -118.350868331938685, 37.406504254320318 ], [ -118.351207219862673, 37.406500381239603 ], [ -118.351212075669466, 37.406770720128904 ], [ -118.352228742703105, 37.406759094947894 ], [ -118.352243321465494, 37.407570111199306 ], [ -118.351904428868195, 37.407573987343625 ], [ -118.351565536206053, 37.407577862516931 ], [ -118.35158496572825, 37.408659217639048 ], [ -118.351923863258577, 37.408655342315129 ], [ -118.351933580843124, 37.409196019723289 ], [ -118.352272480742712, 37.409192143352975 ], [ -118.352282201021069, 37.40973282063409 ], [ -118.351943298687232, 37.409736697079722 ], [ -118.351953016790915, 37.410277374384435 ], [ -118.351614111957872, 37.410281249934293 ], [ -118.351618969889898, 37.41055158860491 ], [ -118.351280063774794, 37.4105554632213 ], [ -118.351289777399089, 37.411096140599028 ], [ -118.350950868784707, 37.411100014319565 ], [ -118.350965436055901, 37.411911030402102 ], [ -118.350626523724941, 37.411914903264396 ], [ -118.350655652714536, 37.413536935306077 ], [ -118.350316733014822, 37.413540807422912 ], [ -118.350331294732825, 37.414351823382063 ] ] ] ] } },
{ "type": "Feature", "properties": { "parcel": "LAW117", "reference_group": "LAW90/94/95", "years_sampled": "2022,2025", "n_years": 2, "GB_TYPE": "A", "COMM_NAME": "Great Basin Mixed Scrub", "COMM_CODE": 35100.0, "COMM_ACRON": "GBMS", "Acreage": 602.46709794799995, "nrcs_esd_plan_note": "Plan goals derived from NRCS ESDs + 1984–87 inventory (species Table 1); specific ESD name not in Green Book layer" }, "geometry": { "type": "MultiPolygon", "coordinates": [ [ [ [ -118.336793529405909, 37.415587276549573 ], [ -118.333404217854607, 37.415625558404479 ], [ -118.333399424499291, 37.415355217946889 ], [ -118.327298669499967, 37.415423879843523 ], [ -118.327236646581284, 37.411909444046998 ], [ -118.327575562130676, 37.411905638234202 ], [ -118.331642543747421, 37.41185989272681 ], [ -118.331594682897702, 37.409156483905178 ], [ -118.331933585445029, 37.409152665837766 ], [ -118.331790004736476, 37.40104243273651 ], [ -118.327384741232137, 37.401091977421416 ], [ -118.327322746386457, 37.397577533209173 ], [ -118.324273084605622, 37.397611732942948 ], [ -118.324268327165214, 37.397341390657751 ], [ -118.319524415644494, 37.39739443344353 ], [ -118.31951967529784, 37.397124090629944 ], [ -118.319180825216037, 37.397127872083317 ], [ -118.319176086149128, 37.396857529220078 ], [ -118.316126443514477, 37.396891518288449 ], [ -118.316121715458678, 37.396621175082011 ], [ -118.316460563676671, 37.396617402438295 ], [ -118.316455834467604, 37.396347059255611 ], [ -118.316794681406037, 37.396343285677887 ], [ -118.318488915150226, 37.39632440322913 ], [ -118.318484178705987, 37.396054060253711 ], [ -118.318823024048712, 37.396050280888673 ], [ -118.318818286451346, 37.395779937937078 ], [ -118.318479442324985, 37.395783717265388 ], [ -118.318455761368853, 37.394432002130252 ], [ -118.318116923260845, 37.39443578030432 ], [ -118.318097984499488, 37.393354407817078 ], [ -118.317759151193258, 37.393358184873712 ], [ -118.317754417877225, 37.393087841682942 ], [ -118.317076753507536, 37.393095392811112 ], [ -118.3170720226871, 37.392825049534054 ], [ -118.316055529307363, 37.392836368837088 ], [ -118.31605080219866, 37.392566025437119 ], [ -118.316389632172204, 37.392562253343307 ], [ -118.31706729192986, 37.392554706244084 ], [ -118.317062561235772, 37.392284362941226 ], [ -118.317401389803663, 37.392280587972472 ], [ -118.318417875128119, 37.392269257243044 ], [ -118.318413139632639, 37.39199891407408 ], [ -118.318751966731497, 37.391995135259926 ], [ -118.320446101276602, 37.39197622663135 ], [ -118.320441358547626, 37.391705883669964 ], [ -118.320780184050562, 37.391702099069462 ], [ -118.322135485428561, 37.391686950962402 ], [ -118.322130736682382, 37.391416608172122 ], [ -118.322469560652294, 37.391412818755917 ], [ -118.32348603218125, 37.391401444684313 ], [ -118.323481278634162, 37.391131102028474 ], [ -118.325175390498785, 37.391112126016999 ], [ -118.325180150126272, 37.391382468488416 ], [ -118.326874266482108, 37.391363468030207 ], [ -118.326879032253643, 37.391633810304057 ], [ -118.328234329057096, 37.391618592320775 ], [ -118.328239099756672, 37.391888934433823 ], [ -118.328916750208379, 37.391881319545199 ], [ -118.328921523403906, 37.392151661571326 ], [ -118.329599176032872, 37.392144042726635 ], [ -118.329603951724422, 37.392414384665798 ], [ -118.329942779159381, 37.392410573750645 ], [ -118.329947556130861, 37.392680915639872 ], [ -118.330625213241632, 37.3926732908239 ], [ -118.330629992709248, 37.392943632626107 ], [ -118.330968822385032, 37.392939818725267 ], [ -118.330973603132648, 37.393210160477501 ], [ -118.331312433960804, 37.393206345569041 ], [ -118.331317215988449, 37.393476687271274 ], [ -118.331994879885485, 37.39346905446854 ], [ -118.331999664409437, 37.393739396083689 ], [ -118.332338497478318, 37.393735578189386 ], [ -118.332343283282384, 37.394005919754527 ], [ -118.332682117503566, 37.394002100852539 ], [ -118.332686904587788, 37.394272442367644 ], [ -118.333025739961286, 37.39426862245795 ], [ -118.333030528325693, 37.394538963923033 ], [ -118.333369364851478, 37.394535143005633 ], [ -118.333374154496113, 37.394805484420644 ], [ -118.333712992174199, 37.394801662495517 ], [ -118.33371778309909, 37.395072003860484 ], [ -118.334056621929477, 37.395068180927609 ], [ -118.334061414134624, 37.39533852224249 ], [ -118.334400254117327, 37.395334698301831 ], [ -118.334405047602814, 37.395605039566647 ], [ -118.33474388873779, 37.39560121461821 ], [ -118.334748683503605, 37.395871555832954 ], [ -118.335087525790883, 37.395867729876691 ], [ -118.335092321837095, 37.396138071041335 ], [ -118.335431165276674, 37.396134244077253 ], [ -118.335435962603299, 37.396404585191775 ], [ -118.335774807195165, 37.396400757219858 ], [ -118.335784404473387, 37.396941439335762 ], [ -118.336123251433918, 37.396937610318759 ], [ -118.336128051385572, 37.397207951320127 ], [ -118.336466899498404, 37.397204121295239 ], [ -118.336471700730598, 37.397474462246457 ], [ -118.336810549995732, 37.39747063121365 ], [ -118.336820155085363, 37.39801131300289 ], [ -118.337159006719247, 37.398007480924917 ], [ -118.337163810576754, 37.398277821762932 ], [ -118.33750266336294, 37.398273988676998 ], [ -118.33751707896991, 37.399085011001752 ], [ -118.337855935341423, 37.399081176833327 ], [ -118.337875161915434, 37.400162539603087 ], [ -118.33821402308898, 37.40015870431484 ], [ -118.338223639194354, 37.400699385547661 ], [ -118.338562502736906, 37.400695549214085 ], [ -118.338572121532451, 37.401236230320663 ], [ -118.338910987444024, 37.401232392941694 ], [ -118.338920608929811, 37.401773073922016 ], [ -118.33925947721049, 37.401769235497646 ], [ -118.339273913571191, 37.402580256759315 ], [ -118.339612785437708, 37.402576417252178 ], [ -118.33962241243303, 37.403117097954066 ], [ -118.339961286668753, 37.403113257401422 ], [ -118.339990176498546, 37.404735298973073 ], [ -118.340329057970848, 37.404731457225559 ], [ -118.340353140681998, 37.406083157993258 ], [ -118.340014253125233, 37.406086999927432 ], [ -118.340057595105179, 37.408520060831215 ], [ -118.339718696530937, 37.40852390213032 ], [ -118.339737956437006, 37.40960526234533 ], [ -118.339399052930005, 37.409609102822614 ], [ -118.339413494883274, 37.410420122960147 ], [ -118.33907458766042, 37.410423962578264 ], [ -118.339089026540719, 37.41123498271142 ], [ -118.338750115601883, 37.411238821470285 ], [ -118.338764551408886, 37.41204984159905 ], [ -118.338425636753968, 37.412053679498605 ], [ -118.33844006948739, 37.412864699622943 ], [ -118.338101151116263, 37.412868536663169 ], [ -118.338115580775863, 37.413679556783059 ], [ -118.337776658688341, 37.413683392963875 ], [ -118.337786276347771, 37.414224073053738 ], [ -118.337447351761199, 37.414227908337828 ], [ -118.337456967242673, 37.414768588450542 ], [ -118.337118040156966, 37.414772422837864 ], [ -118.337127653460314, 37.415313102973414 ], [ -118.336788723875429, 37.415316936463945 ], [ -118.336793529405909, 37.415587276549573 ] ] ] ] } },
{ "type": "Feature", "properties": { "parcel": "LAW119", "reference_group": "LAW118/129", "years_sampled": "2023,2025", "n_years": 2, "GB_TYPE": "A", "COMM_NAME": "Rabbitbrush Scrub", "COMM_CODE": 35400.0, "COMM_ACRON": "CHNAS", "Acreage": 145.890888244, "nrcs_esd_plan_note": "Plan planting table cites NRCS ecological site “gravely loam” (≤3% per species / ≤15% aggregate) for LAW118/129 goals" }, "geometry": { "type": "MultiPolygon", "coordinates": [ [ [ [ -118.340199039116698, 37.397432267497791 ], [ -118.339521341806403, 37.397439948006465 ], [ -118.33951171751076, 37.396899266761899 ], [ -118.339850563765268, 37.396895427067541 ], [ -118.33984575049746, 37.396625086463189 ], [ -118.339506905459359, 37.396628926120236 ], [ -118.339487657896356, 37.395547563424387 ], [ -118.33880997735811, 37.395555239528107 ], [ -118.338805168060631, 37.395284898747256 ], [ -118.33846632891148, 37.395288735305904 ], [ -118.338461520894498, 37.395018394474846 ], [ -118.338122682897406, 37.39502223002561 ], [ -118.338117876160908, 37.394751889144352 ], [ -118.337779039315862, 37.39475572368724 ], [ -118.337783844836082, 37.395026064605773 ], [ -118.33744500671061, 37.395029898215327 ], [ -118.337449811078727, 37.395300239158189 ], [ -118.336772132202711, 37.395307903539972 ], [ -118.336762528395795, 37.39476722149238 ], [ -118.336423691294144, 37.394771052152883 ], [ -118.336414090176248, 37.394230369979169 ], [ -118.336075255442992, 37.394234199594656 ], [ -118.336070456196452, 37.393963858451194 ], [ -118.335731622615313, 37.393967687058904 ], [ -118.335726824649086, 37.39369734586532 ], [ -118.335049159727035, 37.393705000094627 ], [ -118.335044364257286, 37.393434658813739 ], [ -118.334705532916388, 37.393438484435386 ], [ -118.334700738726823, 37.393168143104404 ], [ -118.33300658714316, 37.393187256468543 ], [ -118.333001799098483, 37.392916914938901 ], [ -118.333340628327022, 37.392913094244285 ], [ -118.333326260928288, 37.392102069689265 ], [ -118.332987435348159, 37.392105890272489 ], [ -118.332982647559277, 37.391835548691191 ], [ -118.332643823131335, 37.39183936826678 ], [ -118.332639036622481, 37.391569026635445 ], [ -118.332300213346699, 37.39157284520342 ], [ -118.33229542811786, 37.391302503522056 ], [ -118.331617783806735, 37.391310137672356 ], [ -118.331613001073919, 37.391039795903893 ], [ -118.331274180038605, 37.391043611486232 ], [ -118.33126939858569, 37.390773269667768 ], [ -118.330930578702564, 37.390777084242572 ], [ -118.330925798529563, 37.390506742374122 ], [ -118.330586979798611, 37.390510555941404 ], [ -118.33058220090544, 37.390240214022967 ], [ -118.330243383326703, 37.390244026582742 ], [ -118.330238605713376, 37.389973684614347 ], [ -118.329899789286813, 37.38997749616663 ], [ -118.329895012953259, 37.389707154148283 ], [ -118.328878566938869, 37.38971858287141 ], [ -118.328873794317033, 37.389448240729088 ], [ -118.327857351376906, 37.389459660607358 ], [ -118.327852582466662, 37.389189318341124 ], [ -118.327174955953325, 37.389196926667253 ], [ -118.327170189538663, 37.388926584314191 ], [ -118.326492565202628, 37.388934188684765 ], [ -118.326487801283477, 37.388663846244867 ], [ -118.326148990235907, 37.388667646937598 ], [ -118.32613946502029, 37.388126961945225 ], [ -118.326478273636027, 37.388123161326362 ], [ -118.326463982642039, 37.387312133851793 ], [ -118.326802787546555, 37.387308332373394 ], [ -118.326783728915345, 37.386226962374366 ], [ -118.326444928874025, 37.38623076370498 ], [ -118.326430639215999, 37.385419735959331 ], [ -118.327447028207246, 37.385408329389129 ], [ -118.327451795010163, 37.385678671873066 ], [ -118.328129389784181, 37.385671062567567 ], [ -118.328134159082282, 37.385941404964633 ], [ -118.329489352728814, 37.385926174562158 ], [ -118.32949412695362, 37.386196516798293 ], [ -118.329832926421659, 37.38619270673491 ], [ -118.329842477494154, 37.386733391094381 ], [ -118.330858882810205, 37.386721954860079 ], [ -118.330868441432685, 37.3872626389456 ], [ -118.331207245508679, 37.387258824852715 ], [ -118.331221587568692, 37.388069850772958 ], [ -118.330882779845126, 37.388073664977043 ], [ -118.330892339105944, 37.388614348933459 ], [ -118.330553528886767, 37.388618162241286 ], [ -118.330567864608895, 37.389429188190242 ], [ -118.330906678475884, 37.389425374771214 ], [ -118.330911458393558, 37.389695716691307 ], [ -118.331927903259285, 37.389684270500503 ], [ -118.331923119693755, 37.389413928691653 ], [ -118.332261933305276, 37.389410111390966 ], [ -118.332600746852904, 37.389406293119862 ], [ -118.332595960919363, 37.389135951372296 ], [ -118.332934773187134, 37.389132132167894 ], [ -118.332929986101561, 37.388861790444544 ], [ -118.33326879708946, 37.38885797030688 ], [ -118.333946418873424, 37.388850327120338 ], [ -118.333941628204059, 37.388579985495475 ], [ -118.335296866140425, 37.388564687626378 ], [ -118.335301661673427, 37.38883502910258 ], [ -118.335640472213342, 37.388831202172156 ], [ -118.33564526902633, 37.389101543598223 ], [ -118.335984080718092, 37.389097715660213 ], [ -118.335993676968116, 37.389638398399214 ], [ -118.33565486284445, 37.389642226411624 ], [ -118.335664456918821, 37.390182909173362 ], [ -118.337019722756764, 37.390167591003447 ], [ -118.337014920823592, 37.38989724977791 ], [ -118.338031365880795, 37.389885751072661 ], [ -118.338036171461908, 37.390156092186452 ], [ -118.338713803611128, 37.390148421456274 ], [ -118.338718611688378, 37.390418762482597 ], [ -118.339057428882668, 37.390414925624576 ], [ -118.33906223824016, 37.390685266600691 ], [ -118.339401056586226, 37.390681428734936 ], [ -118.339415488692225, 37.391492451473859 ], [ -118.339754310622169, 37.391488612525727 ], [ -118.339759122668738, 37.391758953375565 ], [ -118.340436768767944, 37.391751272493217 ], [ -118.340431954289244, 37.391480931718029 ], [ -118.340770776026318, 37.391477089858462 ], [ -118.340780407480196, 37.392017771321235 ], [ -118.341119231585139, 37.392013928416503 ], [ -118.341128865728493, 37.392554609752892 ], [ -118.340790039191347, 37.392558452732317 ], [ -118.3407948551434, 37.392828793418488 ], [ -118.341133682896682, 37.392824950401717 ], [ -118.34113850012919, 37.393095291037611 ], [ -118.341477329034291, 37.393091447012957 ], [ -118.341491784766404, 37.393902468731042 ], [ -118.341830617255695, 37.393898623623762 ], [ -118.341835437178005, 37.39416896413325 ], [ -118.342174270819129, 37.394165118018016 ], [ -118.342183913289333, 37.394705798923468 ], [ -118.341845077215709, 37.394709645113451 ], [ -118.341864358063617, 37.395791006918806 ], [ -118.341525517060504, 37.395794852287679 ], [ -118.341186675993001, 37.395798696685922 ], [ -118.341191493933295, 37.396069037179679 ], [ -118.340852651585124, 37.396072880644653 ], [ -118.340857468373386, 37.396343221162837 ], [ -118.340518624744561, 37.39634706369452 ], [ -118.340533071846195, 37.397158085283586 ], [ -118.340194224503932, 37.39716192695662 ], [ -118.340199039116698, 37.397432267497791 ] ] ] ] } },
{ "type": "Feature", "properties": { "parcel": "LAW130", "reference_group": "LAW90/94/95", "years_sampled": "2024,2025", "n_years": 2, "GB_TYPE": "A", "COMM_NAME": "Desert Saltbush Scrub", "COMM_CODE": 36110.0, "COMM_ACRON": "ATPOS", "Acreage": 88.290674745399997, "nrcs_esd_plan_note": "Plan goals derived from NRCS ESDs + 1984–87 inventory (species Table 1); specific ESD name not in Green Book layer" }, "geometry": { "type": "MultiPolygon", "coordinates": [ [ [ [ -118.314441639531935, 37.397451053870405 ], [ -118.314102787285933, 37.397454820799808 ], [ -118.31409334558235, 37.396914133986066 ], [ -118.314432195395426, 37.39691036712987 ], [ -118.314427473421773, 37.396640023740254 ], [ -118.314766321955346, 37.396636255949986 ], [ -118.314761598828341, 37.396365912584073 ], [ -118.315100446082425, 37.39636214385974 ], [ -118.3154392932734, 37.396358374164727 ], [ -118.315425116972577, 37.395547344209383 ], [ -118.3147474298258, 37.395554882408966 ], [ -118.314752152763575, 37.395825225813567 ], [ -118.314413307879178, 37.395828993493993 ], [ -118.314408586157796, 37.395558650052777 ], [ -118.314069742426724, 37.39556241672593 ], [ -118.314060301605778, 37.395021729731575 ], [ -118.314399142904165, 37.395017963131636 ], [ -118.314361372411994, 37.392855214931053 ], [ -118.314022540843695, 37.392858981238177 ], [ -118.31401310128355, 37.392318293985824 ], [ -118.314351930419491, 37.392314527751914 ], [ -118.314328326541599, 37.390962809578284 ], [ -118.313989503486269, 37.390966575629193 ], [ -118.313965907264745, 37.389614856950061 ], [ -118.313627090226618, 37.389618621847532 ], [ -118.313617654611178, 37.389077934212402 ], [ -118.313278839942001, 37.389081698066256 ], [ -118.313269407010495, 37.388541010306376 ], [ -118.312930594710238, 37.388544773116664 ], [ -118.312925879554896, 37.388274429180804 ], [ -118.312587068407623, 37.388278190984131 ], [ -118.312582354531159, 37.388007846998804 ], [ -118.311904734479583, 37.388015367621144 ], [ -118.311900023097877, 37.387745023549847 ], [ -118.310544787103382, 37.387760053003774 ], [ -118.310540080648153, 37.387489708773494 ], [ -118.309523656639911, 37.387500970565448 ], [ -118.309518953895164, 37.387230626212826 ], [ -118.309180146982655, 37.387234378166255 ], [ -118.309142537012065, 37.385071622589294 ], [ -118.309481334198153, 37.385067870927585 ], [ -118.30982013132143, 37.385064118295574 ], [ -118.30981542792621, 37.38479377386335 ], [ -118.310831815271911, 37.384782510255043 ], [ -118.310836522314347, 37.385052854577779 ], [ -118.311175319186276, 37.38504909806462 ], [ -118.311170610928102, 37.384778753778377 ], [ -118.311509406521438, 37.384774996331437 ], [ -118.313203383544277, 37.38475619454254 ], [ -118.313198668054767, 37.384485850462681 ], [ -118.313537462054768, 37.384482087230637 ], [ -118.313546895528191, 37.385022775304328 ], [ -118.31388569189663, 37.385019011028852 ], [ -118.313904564462462, 37.3861003868751 ], [ -118.314243365630915, 37.386096621482963 ], [ -118.314248085145707, 37.386366965375686 ], [ -118.31458688746693, 37.386363198976625 ], [ -118.314591608260557, 37.38663354281983 ], [ -118.314930411734551, 37.386629775413823 ], [ -118.314944578141279, 37.38744080675621 ], [ -118.315283385199749, 37.387437038269979 ], [ -118.31532117478686, 37.389599787655762 ], [ -118.314982358000918, 37.389603556434999 ], [ -118.315029588502185, 37.392306992372461 ], [ -118.315368417448923, 37.392303223226925 ], [ -118.315373142062171, 37.392573566713068 ], [ -118.31605080219866, 37.392566025437119 ], [ -118.316055529307363, 37.392836368837088 ], [ -118.3170720226871, 37.392825049534054 ], [ -118.317076753507536, 37.393095392811112 ], [ -118.317754417877225, 37.393087841682942 ], [ -118.317759151193258, 37.393358184873712 ], [ -118.318097984499488, 37.393354407817078 ], [ -118.318116923260845, 37.39443578030432 ], [ -118.318455761368853, 37.394432002130252 ], [ -118.318479442324985, 37.395783717265388 ], [ -118.318818286451346, 37.395779937937078 ], [ -118.318823024048712, 37.396050280888673 ], [ -118.318484178705987, 37.396054060253711 ], [ -118.318488915150226, 37.39632440322913 ], [ -118.316794681406037, 37.396343285677887 ], [ -118.316455834467604, 37.396347059255611 ], [ -118.316460563676671, 37.396617402438295 ], [ -118.316121715458678, 37.396621175082011 ], [ -118.316126443514477, 37.396891518288449 ], [ -118.315448744456191, 37.396899060737113 ], [ -118.315444018833233, 37.396628717457368 ], [ -118.315105170425824, 37.396632487189009 ], [ -118.315109894832361, 37.39690283050539 ], [ -118.314771045145434, 37.396906599302987 ], [ -118.31477576839859, 37.397176942643078 ], [ -118.314436917432147, 37.397180710506589 ], [ -118.314441639531935, 37.397451053870405 ] ] ] ] } },
{ "type": "Feature", "properties": { "parcel": "LAW134", "reference_group": "LAW90/94/95", "years_sampled": "2024,2025", "n_years": 2, "GB_TYPE": "A", "COMM_NAME": "Shadscale Scrub", "COMM_CODE": 36140.0, "COMM_ACRON": "ATCO", "Acreage": 211.05251973099999, "nrcs_esd_plan_note": "Plan goals derived from NRCS ESDs + 1984–87 inventory (species Table 1); specific ESD name not in Green Book layer" }, "geometry": { "type": "MultiPolygon", "coordinates": [ [ [ [ -118.307156692719431, 37.387797558711583 ], [ -118.305801453209511, 37.387812533823819 ], [ -118.305792074406753, 37.387271844330257 ], [ -118.30613088194643, 37.387268102080519 ], [ -118.306079289635363, 37.384294309344199 ], [ -118.305740495469351, 37.384298051193859 ], [ -118.305726429801467, 37.383487016431367 ], [ -118.305387639219859, 37.383490757201692 ], [ -118.305345456537509, 37.381057651890828 ], [ -118.3050066768335, 37.381061391363779 ], [ -118.304997306023623, 37.380520701080194 ], [ -118.304658528687995, 37.380524439510317 ], [ -118.304649160559322, 37.379983749102493 ], [ -118.304987935463998, 37.379980010745051 ], [ -118.304983250278056, 37.379709665558138 ], [ -118.305322023904736, 37.379705926266901 ], [ -118.305307965076125, 37.378894890737854 ], [ -118.305646734993999, 37.378891150585581 ], [ -118.305595177406417, 37.375917353052976 ], [ -118.305256420856665, 37.375921092805378 ], [ -118.305251735394009, 37.375650747461435 ], [ -118.305590490728562, 37.375647007745393 ], [ -118.30863928592116, 37.375613306652433 ], [ -118.308643983535674, 37.375883651632449 ], [ -118.313725315785945, 37.375827308003359 ], [ -118.313711168448549, 37.37501627466763 ], [ -118.314049919783201, 37.375012510775711 ], [ -118.315404924491773, 37.374997445508697 ], [ -118.315414368138462, 37.375538134046032 ], [ -118.315075614625584, 37.375541901890927 ], [ -118.315122824490402, 37.378245344169947 ], [ -118.314784058762129, 37.378249111411037 ], [ -118.314788778880057, 37.378519455604632 ], [ -118.314450011873404, 37.378523221912282 ], [ -118.314464168959375, 37.379334254525453 ], [ -118.314125398243604, 37.379338019972849 ], [ -118.314139552250552, 37.380149052579718 ], [ -118.313800777825577, 37.38015281716681 ], [ -118.313810211714355, 37.380693505580069 ], [ -118.313471434795488, 37.380697269270208 ], [ -118.313480866505273, 37.381237957705061 ], [ -118.313142087092444, 37.381241720498195 ], [ -118.313170376440127, 37.382863785712594 ], [ -118.312831589671035, 37.382867547754969 ], [ -118.312841017526139, 37.383408236129718 ], [ -118.313179806726438, 37.383404474014213 ], [ -118.313189237264652, 37.38394516226424 ], [ -118.313528028833304, 37.383941399105346 ], [ -118.313537462054768, 37.384482087230637 ], [ -118.313198668054767, 37.384485850462681 ], [ -118.313203383544277, 37.38475619454254 ], [ -118.311509406521438, 37.384774996331437 ], [ -118.311170610928102, 37.384778753778377 ], [ -118.311175319186276, 37.38504909806462 ], [ -118.310836522314347, 37.385052854577779 ], [ -118.310831815271911, 37.384782510255043 ], [ -118.30981542792621, 37.38479377386335 ], [ -118.30982013132143, 37.385064118295574 ], [ -118.309481334198153, 37.385067870927585 ], [ -118.309142537012065, 37.385071622589294 ], [ -118.309170744113274, 37.386693689349386 ], [ -118.308831939569671, 37.386697440259553 ], [ -118.308836639757118, 37.386967784710883 ], [ -118.308497833934908, 37.386971534687127 ], [ -118.308502532969257, 37.387241879162012 ], [ -118.30816372586844, 37.387245628204347 ], [ -118.307824918704867, 37.387249376276301 ], [ -118.307829615370224, 37.387519720811163 ], [ -118.307490806928044, 37.387523467949165 ], [ -118.307151998423137, 37.387527214116794 ], [ -118.307156692719431, 37.387797558711583 ] ] ] ] } },
{ "type": "Feature", "properties": { "parcel": "PLC202", "reference_group": "LAW118/129", "years_sampled": "2023,2025", "n_years": 2, "GB_TYPE": "A", "COMM_NAME": "Great Basin Mixed Scrub", "COMM_CODE": 35100.0, "COMM_ACRON": "GBMS", "Acreage": 29.578488012899999, "nrcs_esd_plan_note": "Plan planting table cites NRCS ecological site “gravely loam” (≤3% per species / ≤15% aggregate) for LAW118/129 goals" }, "geometry": { "type": "MultiPolygon", "coordinates": [ [ [ [ -118.333358641230063, 37.374796365650646 ], [ -118.333019893511931, 37.374800184827983 ], [ -118.333015108598474, 37.374529842457349 ], [ -118.332676362031506, 37.374533660627677 ], [ -118.332666794826395, 37.37399297577344 ], [ -118.33232805062562, 37.373996792899661 ], [ -118.332313703942077, 37.373185765410177 ], [ -118.332652444497825, 37.373181948395271 ], [ -118.332642877931519, 37.372641263411921 ], [ -118.332981615993475, 37.37263744550139 ], [ -118.33297683159121, 37.372367103027464 ], [ -118.333315568374331, 37.372363284184217 ], [ -118.333310782821016, 37.372092941734493 ], [ -118.332972047252824, 37.372096760540622 ], [ -118.332967262978329, 37.371826418040868 ], [ -118.331951059535172, 37.37183786852907 ], [ -118.331946278969255, 37.371567525905107 ], [ -118.331607545575366, 37.371571340757832 ], [ -118.331602766288157, 37.371300998083861 ], [ -118.331941498467174, 37.371297183268226 ], [ -118.331927157343983, 37.370486155280133 ], [ -118.331588428809525, 37.370489969984533 ], [ -118.331554976926384, 37.368597570634208 ], [ -118.330877536672674, 37.368605196614801 ], [ -118.330882312892257, 37.368875539491988 ], [ -118.330543591454983, 37.368879351064805 ], [ -118.330548366523601, 37.369149693966136 ], [ -118.330209643807862, 37.369153504606295 ], [ -118.330214417725472, 37.369423847531756 ], [ -118.329875693731225, 37.369427657239235 ], [ -118.329880466497855, 37.369698000188819 ], [ -118.3295417412251, 37.369701808963598 ], [ -118.329527426760706, 37.368890779965028 ], [ -118.329866148389215, 37.368886971301322 ], [ -118.329861375813778, 37.368616628313013 ], [ -118.330200096163864, 37.368612818716628 ], [ -118.33019532243749, 37.368342475752428 ], [ -118.33256635459901, 37.368315781685936 ], [ -118.332575919121396, 37.368856467082438 ], [ -118.332914640175701, 37.368852649691433 ], [ -118.332928991082511, 37.369663677578039 ], [ -118.333267715717156, 37.369659859105987 ], [ -118.333272500695315, 37.369930201671913 ], [ -118.333611226480812, 37.369926382193015 ], [ -118.333620799058423, 37.370467067211877 ], [ -118.334636983320166, 37.370455602733891 ], [ -118.334641773349304, 37.370725945112504 ], [ -118.335319231633619, 37.370718297204085 ], [ -118.335324024156421, 37.370988639495458 ], [ -118.334985293831409, 37.370992463971724 ], [ -118.334994876639257, 37.371533148590082 ], [ -118.334656143820538, 37.371536972170894 ], [ -118.334660934105571, 37.371807314497872 ], [ -118.334322200008017, 37.371811137146075 ], [ -118.334331778340172, 37.372351821835586 ], [ -118.333993041748826, 37.372355643588286 ], [ -118.334021770990461, 37.373977697569828 ], [ -118.333683027045325, 37.373981518575533 ], [ -118.33369260154069, 37.374522203207036 ], [ -118.333353855101535, 37.374526023317138 ], [ -118.333358641230063, 37.374796365650646 ] ] ] ] } },
{ "type": "Feature", "properties": { "parcel": "PLC219", "reference_group": "LAW118/129", "years_sampled": "2022,2023,2025", "n_years": 3, "GB_TYPE": "A", "COMM_NAME": "Desert Greasewood Scrub", "COMM_CODE": 36130.0, "COMM_ACRON": "SAVES", "Acreage": 126.987343274, "nrcs_esd_plan_note": "Plan planting table cites NRCS ecological site “gravely loam” (≤3% per species / ≤15% aggregate) for LAW118/129 goals" }, "geometry": { "type": "MultiPolygon", "coordinates": [ [ [ [ -118.323427260304953, 37.349490602866105 ], [ -118.3227499895346, 37.349498179009558 ], [ -118.32274524581706, 37.34922783435362 ], [ -118.322067977220456, 37.349235406547301 ], [ -118.322072718510853, 37.349505751276858 ], [ -118.321056811500412, 37.34951710241004 ], [ -118.321052073850737, 37.349246757570121 ], [ -118.319020265403566, 37.349269433452001 ], [ -118.319010804856632, 37.348728743292511 ], [ -118.318672172321371, 37.348732519141137 ], [ -118.318667443356176, 37.348462174005334 ], [ -118.318328811971284, 37.348465948848229 ], [ -118.318314629095141, 37.347654913253344 ], [ -118.318653256839553, 37.347651138520547 ], [ -118.318648528126943, 37.347380793333151 ], [ -118.318987154594737, 37.347377017668101 ], [ -118.318977694932116, 37.346836327328042 ], [ -118.318300446787191, 37.346843877542376 ], [ -118.318295719477447, 37.346573532279592 ], [ -118.317957096523713, 37.346577305896666 ], [ -118.317947644520416, 37.346036615259031 ], [ -118.317609023930345, 37.346040387833789 ], [ -118.317594850038802, 37.345229351670575 ], [ -118.317933466988819, 37.345225579205852 ], [ -118.31792874127116, 37.344955233829005 ], [ -118.31826735694473, 37.344951460432085 ], [ -118.318605972555176, 37.344947686066277 ], [ -118.318591788501095, 37.344136650078497 ], [ -118.318253176530533, 37.344140424334213 ], [ -118.318210638696286, 37.341707315344188 ], [ -118.317872037581338, 37.341711088300862 ], [ -118.317848413725542, 37.340359360449384 ], [ -118.317509818612891, 37.340363132253913 ], [ -118.31748620239938, 37.339011403896663 ], [ -118.31714761328864, 37.339015174549154 ], [ -118.317138169670628, 37.33847448304266 ], [ -118.316799582922727, 37.338478252653154 ], [ -118.316794862421233, 37.338207906843905 ], [ -118.316456276823217, 37.338211675449102 ], [ -118.316451557597659, 37.337941329590322 ], [ -118.316112973149515, 37.337945097190229 ], [ -118.316108255199865, 37.337674751281916 ], [ -118.315431088540421, 37.337682283502581 ], [ -118.31542637307949, 37.337411937508129 ], [ -118.315087790868205, 37.337415702128908 ], [ -118.315083076683109, 37.33714535608496 ], [ -118.314405914497385, 37.337152882347461 ], [ -118.314401202800937, 37.336882536217438 ], [ -118.314062622826526, 37.336886297859181 ], [ -118.314057912405829, 37.33661595167969 ], [ -118.313719333581346, 37.336619712316264 ], [ -118.313714624436386, 37.336349366087305 ], [ -118.313376046761846, 37.33635312571873 ], [ -118.31333838556769, 37.334190355130524 ], [ -118.313676953540295, 37.334186595791564 ], [ -118.314354089296856, 37.334179074208102 ], [ -118.314358800364175, 37.334449420467045 ], [ -118.314697369360758, 37.33444565818597 ], [ -118.314702081703672, 37.334716004395432 ], [ -118.315040651850055, 37.334712241109237 ], [ -118.315050079150126, 37.335252933416314 ], [ -118.315388651658992, 37.335249169088378 ], [ -118.315393366616192, 37.335519515185972 ], [ -118.316070513870542, 37.335511983551221 ], [ -118.316075231316219, 37.335782329562697 ], [ -118.317768104413233, 37.335763483342845 ], [ -118.317772827985777, 37.336033829158154 ], [ -118.318111403628777, 37.336030056971829 ], [ -118.318116128477186, 37.33630040273755 ], [ -118.3184547052699, 37.336296629545963 ], [ -118.318468883832139, 37.337107666655733 ], [ -118.318807464200205, 37.337103892385457 ], [ -118.318812191726693, 37.337374238026207 ], [ -118.319150773244459, 37.33737046275062 ], [ -118.319155502046954, 37.337640808341789 ], [ -118.320171249859925, 37.337629476593115 ], [ -118.320199645833583, 37.3392515492081 ], [ -118.319861056014886, 37.339255327646711 ], [ -118.319875251215947, 37.340066363890315 ], [ -118.320213844673589, 37.340062585341478 ], [ -118.320228044082441, 37.340873621358774 ], [ -118.320566641116031, 37.340869841730978 ], [ -118.320576110130787, 37.341410532271183 ], [ -118.320914709527287, 37.341406751601134 ], [ -118.320924181221173, 37.341947442016227 ], [ -118.321262782980654, 37.341943660303883 ], [ -118.321267520135621, 37.342214005455311 ], [ -118.321606123044987, 37.342210222737414 ], [ -118.321615599970954, 37.342750912928018 ], [ -118.321954205243372, 37.342747129167748 ], [ -118.322020567798688, 37.346531958542144 ], [ -118.322359189993833, 37.346528173297855 ], [ -118.322382899980539, 37.347879897277679 ], [ -118.322721528179571, 37.347876110880392 ], [ -118.322726271580379, 37.34814645560084 ], [ -118.323403530215373, 37.348138879825683 ], [ -118.323427260304953, 37.349490602866105 ] ] ] ] } },
{ "type": "Feature", "properties": { "parcel": "PLC227", "reference_group": "LAW118/129", "years_sampled": "2023,2025", "n_years": 2, "GB_TYPE": "A", "COMM_NAME": "Desert Saltbush Scrub", "COMM_CODE": 36110.0, "COMM_ACRON": "ATPOS", "Acreage": 98.520828494200003, "nrcs_esd_plan_note": "Plan planting table cites NRCS ecological site “gravely loam” (≤3% per species / ≤15% aggregate) for LAW118/129 goals" }, "geometry": { "type": "MultiPolygon", "coordinates": [ [ [ [ -118.31126467785883, 37.331779770955407 ], [ -118.310249005174285, 37.331791024742998 ], [ -118.310244309286361, 37.331520677916878 ], [ -118.309228639675084, 37.331531922879208 ], [ -118.309223947487425, 37.331261575930867 ], [ -118.308546836524954, 37.331269067657438 ], [ -118.308509320678354, 37.32910629102382 ], [ -118.308170774802775, 37.329110035143202 ], [ -118.308166086816115, 37.328839687969598 ], [ -118.307488997301917, 37.328847173230535 ], [ -118.307484311802568, 37.328576825971254 ], [ -118.307145768163963, 37.328580567112823 ], [ -118.307141083939527, 37.328310219804273 ], [ -118.306802541450722, 37.328313959941163 ], [ -118.306788492789693, 37.327502917829101 ], [ -118.306449953875287, 37.327506656888588 ], [ -118.306431228051707, 37.326425267079969 ], [ -118.306092693923844, 37.326429005025759 ], [ -118.306078653849127, 37.32561796242495 ], [ -118.305401592679146, 37.325625435193764 ], [ -118.305396915203573, 37.325355087561718 ], [ -118.305058385737055, 37.32535882245746 ], [ -118.305063062000471, 37.325629170125836 ], [ -118.304724531259339, 37.32563290408968 ], [ -118.304386000455793, 37.325636637085303 ], [ -118.304390674357265, 37.3259069848134 ], [ -118.304052142279104, 37.325910716877083 ], [ -118.30406148784482, 37.326451412367206 ], [ -118.304400022347409, 37.326447680230942 ], [ -118.304428067815891, 37.328069766174352 ], [ -118.304089526039604, 37.328073498528397 ], [ -118.304098872603745, 37.328614193812392 ], [ -118.304437416804703, 37.32861046138575 ], [ -118.304446766043228, 37.32915115654562 ], [ -118.304108219417486, 37.329154889044844 ], [ -118.304122240106182, 37.329965931796906 ], [ -118.303106588942839, 37.329977123811005 ], [ -118.302768038430315, 37.329980852545603 ], [ -118.302772707268204, 37.330251200248966 ], [ -118.302434155480881, 37.330254928051438 ], [ -118.302424820292316, 37.329714232559361 ], [ -118.302086270867562, 37.329717959320966 ], [ -118.302076938353153, 37.329177263704871 ], [ -118.301738391290911, 37.329180989425645 ], [ -118.301729061450516, 37.328640293685567 ], [ -118.302067606087974, 37.328636568037247 ], [ -118.302062940048842, 37.328366220184108 ], [ -118.302401483411643, 37.328362493603706 ], [ -118.303078569950259, 37.328355037537918 ], [ -118.303069230784914, 37.327814342010512 ], [ -118.30273068997144, 37.327818070455038 ], [ -118.302721353480123, 37.327277374803572 ], [ -118.302382815028921, 37.327281102207309 ], [ -118.302378148089019, 37.327010754326004 ], [ -118.301701073424255, 37.327018206156147 ], [ -118.301696408971196, 37.326747858189492 ], [ -118.301357872757634, 37.326751582615927 ], [ -118.301343883408919, 37.325940538530006 ], [ -118.301682415985795, 37.325936814212234 ], [ -118.302359480952674, 37.32592936267195 ], [ -118.302364147643289, 37.326199710604783 ], [ -118.302702681245492, 37.326195983346039 ], [ -118.302698013342663, 37.325925635449458 ], [ -118.303036545670295, 37.325921907258717 ], [ -118.303022538699281, 37.325110863600415 ], [ -118.302684010008178, 37.325114591682393 ], [ -118.302679342354679, 37.324844243734276 ], [ -118.302340814813391, 37.324847970811781 ], [ -118.30232214967107, 37.323766578745506 ], [ -118.302660672363913, 37.323762851812965 ], [ -118.302656005022058, 37.323492503800438 ], [ -118.302994526440528, 37.323488775935999 ], [ -118.302989857948901, 37.323218427946841 ], [ -118.303328378092985, 37.323214699150512 ], [ -118.303323708451686, 37.322944351184738 ], [ -118.303662227321396, 37.322940621456524 ], [ -118.303657556530439, 37.322670273514142 ], [ -118.30399607412572, 37.322666542854087 ], [ -118.303954028906233, 37.320233411119403 ], [ -118.304292535531744, 37.320229679817828 ], [ -118.304283190412136, 37.319688983807659 ], [ -118.304621694551571, 37.319685251610643 ], [ -118.304960198628578, 37.319681518445606 ], [ -118.304955523738727, 37.319411170493808 ], [ -118.305294026541517, 37.319407436397057 ], [ -118.306648037128085, 37.319392490330038 ], [ -118.306643356241636, 37.319122142547023 ], [ -118.306981857520256, 37.319118403646613 ], [ -118.306977175484562, 37.318848055887067 ], [ -118.307315675488866, 37.318844316055035 ], [ -118.307320358736376, 37.319114663778208 ], [ -118.307658859889955, 37.31911092294181 ], [ -118.307672913643088, 37.319921965924848 ], [ -118.307334408854089, 37.3199257068704 ], [ -118.307339092351711, 37.320196054542031 ], [ -118.307000586288325, 37.320199794555919 ], [ -118.307005268636658, 37.32047014225104 ], [ -118.306666761298885, 37.320473881333271 ], [ -118.30667144249783, 37.320744229051854 ], [ -118.306332933885685, 37.320747967202394 ], [ -118.306365695545139, 37.322640401126272 ], [ -118.306704212640909, 37.322636662721251 ], [ -118.306718257925652, 37.323447705529141 ], [ -118.307056778594955, 37.323443966046902 ], [ -118.307070828078594, 37.32425500862972 ], [ -118.307409352321571, 37.324251268070213 ], [ -118.307446830060172, 37.326414047433083 ], [ -118.307785363937882, 37.326410305614296 ], [ -118.307794736422608, 37.326951000253366 ], [ -118.308133272662232, 37.326947257393527 ], [ -118.308152023231727, 37.328028646371465 ], [ -118.30849056425788, 37.328024902397715 ], [ -118.308499942342891, 37.328565596736539 ], [ -118.30883848573113, 37.328561851721666 ], [ -118.308843176079904, 37.328832198835329 ], [ -118.309520265093184, 37.328824705827728 ], [ -118.309524957929355, 37.329095052855635 ], [ -118.309863503554382, 37.329091304862892 ], [ -118.30987289183949, 37.329631998807159 ], [ -118.310211439826631, 37.329628249773165 ], [ -118.31022552636172, 37.330439290483518 ], [ -118.310564077923473, 37.330435540371759 ], [ -118.310573471685345, 37.33097623404128 ], [ -118.310912025609298, 37.330972482888185 ], [ -118.310916723796822, 37.33124282966714 ], [ -118.311593833881531, 37.33123532438276 ], [ -118.311598534556794, 37.331505671075831 ], [ -118.311259978333311, 37.331509424238725 ], [ -118.31126467785883, 37.331779770955407 ] ] ] ] } },
{ "type": "Feature", "properties": { "parcel": "PLC230", "reference_group": "LAW118/129", "years_sampled": "2023,2025", "n_years": 2, "GB_TYPE": "A", "COMM_NAME": "Nevada Saltbush Scrub", "COMM_CODE": 36150.0, "COMM_ACRON": "ATTO", "Acreage": 157.90019916700001, "nrcs_esd_plan_note": "Plan planting table cites NRCS ecological site “gravely loam” (≤3% per species / ≤15% aggregate) for LAW118/129 goals" }, "geometry": { "type": "MultiPolygon", "coordinates": [ [ [ [ -118.298682156912136, 37.328673780945259 ], [ -118.298343611652484, 37.328677496910196 ], [ -118.298338958949358, 37.328407148659061 ], [ -118.297661870668435, 37.328414577611674 ], [ -118.297652570297956, 37.327873880926255 ], [ -118.297314028489026, 37.327877593877858 ], [ -118.29728613614158, 37.326255503295862 ], [ -118.297624670676811, 37.326251790560896 ], [ -118.298301739560998, 37.326244362186209 ], [ -118.298297087417012, 37.325974013819135 ], [ -118.298635620553696, 37.325970298215537 ], [ -118.2986263140277, 37.325429601515047 ], [ -118.29896484467784, 37.325425885015484 ], [ -118.298960190295873, 37.325155536682061 ], [ -118.298621660857876, 37.325159253145472 ], [ -118.298612354704701, 37.324618556367696 ], [ -118.297935300490948, 37.324625986245358 ], [ -118.2979306499318, 37.324355637764896 ], [ -118.297592123943886, 37.324359351215321 ], [ -118.297582825436095, 37.323818654143523 ], [ -118.297244301810309, 37.32382236655355 ], [ -118.297239653861638, 37.323552017962236 ], [ -118.297578176275337, 37.323548305588318 ], [ -118.297916698626949, 37.323544592246243 ], [ -118.297912048316192, 37.323274243714266 ], [ -118.298927611362203, 37.32326309798745 ], [ -118.298932265309148, 37.323533446411048 ], [ -118.299270787412269, 37.323529729196316 ], [ -118.299275442633444, 37.323800077570873 ], [ -118.299613965886479, 37.323796359351824 ], [ -118.299623278939507, 37.324337055989979 ], [ -118.299961804554556, 37.324333336730433 ], [ -118.29994783143205, 37.323522291862403 ], [ -118.300286353348639, 37.323518571743193 ], [ -118.300272377149767, 37.322707526867788 ], [ -118.299933858869281, 37.322711246878448 ], [ -118.299929201472736, 37.322440898524718 ], [ -118.299590684342093, 37.322444617531083 ], [ -118.299586028219721, 37.322174269128283 ], [ -118.299247512238892, 37.322177987130374 ], [ -118.299238202604656, 37.321637290213843 ], [ -118.297545633888149, 37.321655865341263 ], [ -118.297550282614367, 37.321926213986629 ], [ -118.297211767472817, 37.321929926143923 ], [ -118.297207119958557, 37.321659577462469 ], [ -118.296868605966907, 37.321663288615575 ], [ -118.296863959726664, 37.321392939885143 ], [ -118.295848421015378, 37.32140406742765 ], [ -118.295843778472985, 37.321133718576128 ], [ -118.296182290226824, 37.321130010399436 ], [ -118.296177646534503, 37.320859661571106 ], [ -118.296516157014409, 37.320855952462416 ], [ -118.297193177788131, 37.320848531340829 ], [ -118.297188530522121, 37.320578182607861 ], [ -118.297527039603978, 37.320574470631065 ], [ -118.297503798145385, 37.319222726953555 ], [ -118.297842301105916, 37.319219014189244 ], [ -118.29783300253338, 37.318678316700314 ], [ -118.298171503008248, 37.318674603040236 ], [ -118.298162202260485, 37.318133905572019 ], [ -118.297823704209151, 37.318137619159877 ], [ -118.297809757188404, 37.317326572752634 ], [ -118.298148251604573, 37.317322859273133 ], [ -118.29814360151012, 37.317052510481084 ], [ -118.298482094652513, 37.317048796069763 ], [ -118.298472792226534, 37.316508098519279 ], [ -118.299149773478348, 37.316500666937394 ], [ -118.299187004060201, 37.318663456252033 ], [ -118.299525504286592, 37.318659738719987 ], [ -118.299530159600764, 37.318930087290205 ], [ -118.300884164731642, 37.318915207337419 ], [ -118.300870184434444, 37.318104162022259 ], [ -118.300193189263993, 37.318111603717526 ], [ -118.300183874223862, 37.317570906631595 ], [ -118.30052236941674, 37.31756718634032 ], [ -118.300508393687963, 37.316756140723399 ], [ -118.300846885183589, 37.316752419572737 ], [ -118.300837565918812, 37.316211722502764 ], [ -118.301176054928931, 37.316208000456584 ], [ -118.30117139417824, 37.315937651938484 ], [ -118.301509881914512, 37.315933928960611 ], [ -118.301519205901371, 37.316474625911532 ], [ -118.301857695998635, 37.316470901893318 ], [ -118.30186235929709, 37.316741250313235 ], [ -118.302877832850143, 37.316730072342466 ], [ -118.302873165916751, 37.316459724031269 ], [ -118.304565614533757, 37.316441074903004 ], [ -118.304570287525351, 37.316711423032821 ], [ -118.305247268958752, 37.316703956533559 ], [ -118.305251944436094, 37.31697430457789 ], [ -118.305590436270791, 37.316970569840059 ], [ -118.305595113022207, 37.317240917835178 ], [ -118.305933606006164, 37.317237182093088 ], [ -118.305938284031711, 37.317507530038995 ], [ -118.306276778164886, 37.31750379329263 ], [ -118.306281457464621, 37.317774141189311 ], [ -118.306619952746999, 37.317770403438658 ], [ -118.306624633320936, 37.318040751286098 ], [ -118.306963129752532, 37.318037012531136 ], [ -118.306981857520256, 37.319118403646613 ], [ -118.306643356241636, 37.319122142547023 ], [ -118.306648037128085, 37.319392490330038 ], [ -118.305294026541517, 37.319407436397057 ], [ -118.304955523738727, 37.319411170493808 ], [ -118.304960198628578, 37.319681518445606 ], [ -118.304621694551571, 37.319685251610643 ], [ -118.304283190412136, 37.319688983807659 ], [ -118.304292535531744, 37.320229679817828 ], [ -118.303954028906233, 37.320233411119403 ], [ -118.30399607412572, 37.322666542854087 ], [ -118.303657556530439, 37.322670273514142 ], [ -118.303662227321396, 37.322940621456524 ], [ -118.303323708451686, 37.322944351184738 ], [ -118.303328378092985, 37.323214699150512 ], [ -118.302989857948901, 37.323218427946841 ], [ -118.302994526440528, 37.323488775935999 ], [ -118.302656005022058, 37.323492503800438 ], [ -118.302660672363913, 37.323762851812965 ], [ -118.30232214967107, 37.323766578745506 ], [ -118.302340814813391, 37.324847970811781 ], [ -118.302679342354679, 37.324844243734276 ], [ -118.302684010008178, 37.325114591682393 ], [ -118.303022538699281, 37.325110863600415 ], [ -118.303036545670295, 37.325921907258717 ], [ -118.302698013342663, 37.325925635449458 ], [ -118.302702681245492, 37.326195983346039 ], [ -118.302364147643289, 37.326199710604783 ], [ -118.302359480952674, 37.32592936267195 ], [ -118.301682415985795, 37.325936814212234 ], [ -118.301343883408919, 37.325940538530006 ], [ -118.301357872757634, 37.326751582615927 ], [ -118.301696408971196, 37.326747858189492 ], [ -118.301701073424255, 37.327018206156147 ], [ -118.302378148089019, 37.327010754326004 ], [ -118.302382815028921, 37.327281102207309 ], [ -118.302721353480123, 37.327277374803572 ], [ -118.30273068997144, 37.327818070455038 ], [ -118.303069230784914, 37.327814342010512 ], [ -118.303078569950259, 37.328355037537918 ], [ -118.301385853136338, 37.328373670439952 ], [ -118.301381189584205, 37.328103322501484 ], [ -118.301042647246888, 37.328107046140708 ], [ -118.301037984969369, 37.327836698153149 ], [ -118.300699443782094, 37.327840420787851 ], [ -118.300694782779146, 37.327570072751215 ], [ -118.299340622257162, 37.327584953462228 ], [ -118.299354590904755, 37.328395997967647 ], [ -118.299016046981777, 37.328399715833115 ], [ -118.29867750299664, 37.328403432730241 ], [ -118.298682156912136, 37.328673780945259 ] ] ] ] } }
]
}
